"","Name","clinic_names","postalcode","longitude","latitude","address"
"1","kml_1","CHEN FAMILY CLINIC","550153","103.872312298307","1.36995099695439","SERANGOON NORTH AVE 1, 550153"
"2","kml_2","CHENG CLINIC","560447","103.855967138976","1.36747901395741","ANG MO KIO AVE 10, 560447"
"3","kml_3","CHEONG FAMILY CLINIC PTE LTD","210045","103.850825476113","1.31559567557441","OWEN RD, 210045"
"4","kml_4","CHEONG MEDICAL CLINIC","598589","103.77332960556","1.34054866770426","JLN JURONG KECHIL, 598589"
"5","kml_5","CHERN MEDICAL CLINIC","521138","103.945588355489","1.34550450587014","TAMPINES ST 11, 521138"
"6","kml_6","CHESTMED pte ltd","228510","103.83543933754","1.30516521414744","Mount Elizabeth, 228510"
"7","kml_7","CHIA & LEE MEDICAL & DENTAL CLINIC","520802","103.93803402297","1.34608442387087","TAMPINES AVE 4, 520802"
"8","kml_8","CHIA CLINIC AND SURGERY","209264","103.859968796046","1.31270180835768","FOCH ROAD, 209264"
"9","kml_9","CHIEW CLINIC","548008","103.88499280169","1.36197602911345","KOVAN ROAD, 548008"
"10","kml_10","CHIN CHOO CLINIC","370035","103.886010316195","1.32915899651205","CIRCUIT ROAD, 370035"
"11","kml_11","CHIN LEONG CLINIC","120517","103.7601572777","1.30747684403086","WEST COAST ROAD, 120517"
"12","kml_12","CHINATOWN WELLNESS CLINIC","050531","103.846101472114","1.28439238197795","UPPER CROSS STREET, 050531"
"13","kml_13","CHIRON MEDICAL CLINIC","320003","103.861107276896","1.32258735163112","ST. GEORGE'S ROAD, 320003"
"14","kml_14","CHNG CLINIC AND SURGERY","310178","103.849264521174","1.33358025833851","TOA PAYOH CENTRAL, 310178"
"15","kml_15","CHONG & LIM FAMILY CLINIC","670103","103.768538441068","1.37867070866309","GANGSA ROAD, 670103"
"16","kml_16","CHONG MEDICAL CLINIC","470703","103.91989305506","1.33716507465033","BEDOK RESERVOIR ROAD, 470703"
"17","kml_17","CHONG'S MEDICAL CENTRE","239924","103.844111318068","1.29815265418204","CLEMENCEAU AVE, 239924"
"18","kml_18","CHOONG'S CLINIC","520480","103.953613062624","1.36189869571333","TAMPINES ST 44, 520480"
"19","kml_19","CHOONG'S CLINIC","390021","103.88441304265","1.3075861395776","OLD AIRPORT RD, 390021"
"20","kml_20","CHUA CLINIC","530678","103.884236382226","1.37084076367772","HOUGANG AVE 8, 530678"
"21","kml_21","CHUA CLINIC & SURGERY","760769","103.83322239147","1.42460205341205","YISHUN AVE 3, 760769"
"22","kml_22","CHUA CLINIC & SURGERY","760844","103.835446503405","1.41562517359593","YISHUN ST 81, 760844"
"23","kml_23","CHUA MEDICO CLINIC LLP","560529","103.85545542764","1.37234358213412","ANG MO KIO AVE 10, 560529"
"24","kml_24","CHUAH CLINIC & SURGERY PTE LTD","380113","103.886159306963","1.32052595944466","ALJUNIED AVE 2, 380113"
"25","kml_25","CHUNGKIAW CLINIC PTE LTD","596180","103.773649129579","1.34054847931538","JALAN JURONG KECHIL, 596180"
"26","kml_26","CITILIFE FAMILY CLINIC","600215","103.738514477814","1.33993327230313","JURONG EAST ST 21, 600215"
"27","kml_27","CITIZEN FAMILY CLINIC AND SURGERY","760102","103.828762985206","1.43061830395979","YISHUN AVE 5, 760102"
"28","kml_28","CLARION MEDICAL","560202","103.844516260553","1.36844644023912","ANG MO KIO AVENUE 3, 560202"
"29","kml_29","DA Clinic @ Bishan","570501","103.84907733333","1.34841689766538","BISHAN STREET 11, 570501"
"30","kml_30","1 Medical Teck Ghee","560410","103.854644986918","1.36271541943285","ANG MO KIO AVENUE 10, 560410"
"31","kml_31","115 EASTPOINT CLINIC & SURGERY","460115","103.936865404289","1.33143367986449","BEDOK NORTH RD, 460115"
"32","kml_32","18 CLINIC","322101","103.861087462865","1.31942539044681","TOWNER ROAD, 322101"
"33","kml_33","1Aesthetics, Medical & Surgery","059818","103.84679624319","1.28895619965092","EU TONG SEN STREET, 059818"
"34","kml_34","338 FAMILY CLINIC","560338","103.848986957423","1.3638957019431","ANG MO KIO AVE 1, 560338"
"35","kml_35","57 Medical Clinic (Geylang Bahru)","330057","103.869147756879","1.3235378064709","GEYLANG BAHRU, 330057"
"36","kml_36","81 FAMILY CLINIC","440086","103.906754510622","1.30173721640039","MARINE PARADE CENTRAL, 440086"
"37","kml_37","888 PLAZA FAMILY CLINIC","730888","103.79531438351","1.43712301469225","WOODLANDS DRIVE 50, 730888"
"38","kml_38","A & A Clinic","732570","103.79045407864","1.43106395467045","WOODLANDS AVENUE 1, 732570"
"39","kml_39","A LIFE CLINIC PTE LTD","307506","103.844160709873","1.3207051098625","SINARAN DRIVE, 307506"
"40","kml_40","A MEDICAL CLINIC","081001","103.840001188467","1.27742654256439","EVERTON PARK, 081001"
"41","kml_41","A+FFORDABLE CLINIC (AMK AVE 10)","560449","103.856047008296","1.36785888235033","ANG MO KIO AVENUE 10, 560449"
"42","kml_42","A+FFORDABLE CLINIC (HOUGANG)","530681","103.885679159796","1.37297840263115","HOUGANG AVENUE 8, 530681"
"43","kml_43","A1 Medical Clinic","460418","103.930036524412","1.32856421162809","BEDOK NORTH AVENUE 2, 460418"
"44","kml_44","ABLE MEDICAL","524201","103.953586491461","1.35226231434834","TAMPINES STREET 21, 524201"
"45","kml_45","ACMS MEDICAL CLINIC","239693","103.837359153263","1.30139878843175","GRANGE ROAD, 239693"
"46","kml_46","ACUMED MEDICAL GROUP","049318","103.852547365584","1.28418785545188","COLLYER QUAY, 049318"
"47","kml_47","ACUMED MEDICAL GROUP","648886","103.706685012636","1.33945271688955","JURONG WEST CENTRAL 2, 648886"
"48","kml_48","ACUMED MEDICAL GROUP","600038","103.742787643586","1.32113896653504","TEBAN GARDENS ROAD, 600038"
"49","kml_49","ACUMED MEDICAL GROUP","730111","103.782059433299","1.43794381737826","WOODLANDS STREET 13, 730111"
"50","kml_50","ACUMED MEDICAL GROUP","610064","103.722451247982","1.33237347600046","YUNG KUANG ROAD, 610064"
"51","kml_51","ACUMED MEDICAL GROUP","639591","103.652226413178","1.31715448633568","PIONEER ROAD, 639591"
"52","kml_52","ACUMED MEDICAL GROUP","639499","103.66095280564","1.32148166492796","TUAS AVENUE 1, 639499"
"53","kml_53","ADIDAH FAMILY CLINIC & SURGERY","520821","103.934649103244","1.34841976695403","TAMPINES ST 81, 520821"
"54","kml_54","ADMIRALTY FAMILY MEDICAL CLINIC","730693","103.80376495913","1.43808788035983","WOODLANDS AVENUE 6, 730693"
"55","kml_55","ADVANCE CLINIC & SURGERY PTE LTD","400301","103.901953041118","1.33068802483318","UBI AVE 1, 400301"
"56","kml_56","AE Medical Clinic","792467","103.877933381804","1.39807105477126","FERNVALE LINK, 792467"
"57","kml_57","AIDAN MEDICAL CLINIC","460539","103.925307290309","1.33131386611754","BEDOK NORTH STREET 3, 460539"
"58","kml_58","ALEXANDRA FAMILY CLINIC & SURGERY","142057","103.810958956801","1.29270339832463","DAWSON ROAD, 142057"
"59","kml_59","ALLIANCE CLINIC AND PARTNERS PTE LTD","410652","103.907742997146","1.33269651937702","JALAN TENAGA, 410652"
"60","kml_60","AMDA International Peace Clinic","257720","103.819135632329","1.30847204130269","TAMAN SERASI, 257720"
"61","kml_61","AMITY MEDICAL CLINIC & DENTAL SURGERY","650371","103.75069463099","1.35925940880518","BT BATOK ST 31, 650371"
"62","kml_62","AMK FAMILY CLINIC PTE LTD","569922","103.847159445411","1.36929729659109","ANG MO KIO AVE 3, 569922"
"63","kml_63","AMPM FAMILY CLINIC & SURGERY PTE. LTD.","310123","103.845703844549","1.33864901778038","TOA PAYOH LOR 1, 310123"
"64","kml_64","ANG MO KIO MEDICAL CENTRE","560157","103.839395071325","1.37530562129984","ANG MO KIO AVE 4, 560157"
"65","kml_65","ANSARI FAMILY CLINIC & SURGERY","388259","103.883338697356","1.31592240672591","LORONG  25A GEYLANG ROAD, 388259"
"66","kml_66","APEX CLINIC & SURGERY","760844","103.835446503405","1.41562517359593","YISHUN ST 81, 760844"
"67","kml_67","APEX CLINIC & SURGERY","730306","103.774636554647","1.42992991950792","WOODLANDS ST 31, 730306"
"68","kml_68","APEX MEDICAL CENTRE (JURONG) PTE LTD","640960","103.691459639169","1.34138531152671","JURONG WEST ST 92, 640960"
"69","kml_69","AR-Raudhah Medical Clinic and Surgery Pte Ltd","650372","103.751213742333","1.35866916669751","BUKIT BATOK STREET 31, 650372"
"70","kml_70","ARCADIA CLINIC","597626","103.778972458718","1.32044171174532","PANDAN VALLEY, 597626"
"71","kml_71","ASIAMEDIC WELLNESS ASSESSMENT CENTRE","238868","103.831507365278","1.30580981572661","ORCHARD ROAD, 238868"
"72","kml_72","ASPEN CLINIC","570283","103.844748631654","1.35891907140489","BISHAN STREET 22, 570283"
"73","kml_73","ASSOCIATE DISPENSARIES","310094","103.849538318462","1.33889442806175","TOA PAYOH LOR 4, 310094"
"74","kml_74","ASSURANCE MEDICARE CLINIC AND SURGERY","437127","103.896729088429","1.30288819409101","TANJONG KATONG ROAD, 437127"
"75","kml_75","ATLAS PACIFIC MEDICAL","248327","103.827620903348","1.29446098576164","RIVER VALLEY ROAD, 248327"
"76","kml_76","ATRIO FAMILY CLINIC (AMK) PTE. LTD.","560532","103.854594160953","1.37380851529933","ANG MO KIO AVENUE 10, 560532"
"77","kml_77","Acacia Medical Clinic","109684","103.803023755955","1.28220135432784","DEPOT ROAD, 109684"
"78","kml_78","AcuMed Medical Group","649846","103.70592708661","1.33845148863534","BOON LAY WAY, 649846"
"79","kml_79","AcuMed Medical Group","460214","103.932493034946","1.32587565153874","Bedok North Street 1, 460214"
"80","kml_80","AcuMed Medical Group","543215","103.892787161386","1.38977026270373","COMPASSVALE DRIVE, 543215"
"81","kml_81","Acumed Medical Group","629117","103.678409741881","1.32561767794228","JOO KOON CIRCLE, 629117"
"82","kml_82","Acumed Medical Group","637370","103.626524577792","1.28909462597839","TUAS SOUTH AVENUE 3, 637370"
"83","kml_83","Affinity Medical Clinic","550253","103.870851534198","1.35403939788243","SERANGOON CENTRAL DRIVE, 550253"
"84","kml_84","Allergy, Arthritis & Rheumatism Clinic","217562","103.853929522028","1.31247324146379","FARRER PARK STATION ROAD, 217562"
"85","kml_85","Allhealth Family Clinic","523872","103.931623628634","1.35524290247104","TAMPINES STREET 86, 523872"
"86","kml_86","Ally Health","140462","103.798227586733","1.29996199426431","COMMONWEALTH DRIVE, 140462"
"87","kml_87","Ang Mo Kio Family Medicine Clinic","569841","103.845949440183","1.37193728999032","ANG MO KIO AVENUE 6, 569841"
"88","kml_88","Anteh Dispensary Pte Ltd","398664","103.882455638548","1.31277604579897","LORONG 22 GEYLANG, 398664"
"89","kml_89","Apollo Medical Centre","210668","103.851478219833","1.30758123998287","CHANDER ROAD, 210668"
"90","kml_90","Asia HealthPartners","238863","103.833961913411","1.30450610034739","ORCHARD ROAD, 238863"
"91","kml_91","Atrio Family Clinic","760291","103.836723874387","1.43576080433402","YISHUN STREET 22, 760291"
"92","kml_92","B S CHEW CLINIC","600252","103.738145286322","1.34302644245795","JURONG EAST ST 24, 600252"
"93","kml_93","B T GOH FAMILY CLINIC & SURGERY","310194","103.858181908966","1.33093933661869","KIM KEAT AVE, 310194"
"94","kml_94","BALKIS FAMILY CLINIC","470631","103.914941831149","1.33295923548327","BEDOK RESERVOIR RD, 470631"
"95","kml_95","BEDOK  CENTRAL CLINIC","460214","103.932493034946","1.32587565153874","BEDOK NORTH STREET 1, 460214"
"96","kml_96","BEDOK CLINIC & SURGERY(Family Medical Centre)","460017","103.935563486314","1.32014882956642","BEDOK SOUTH RD, 460017"
"97","kml_97","BEDOK LIFE CLINIC","460123","103.937343348132","1.32919868633173","BEDOK NORTH ST 2, 460123"
"98","kml_98","BEDOK MEDICAL CENTRE","460018","103.934734222327","1.3206250489608","BEDOK SOUTH RD, 460018"
"99","kml_99","BISHAN GRACE CLINIC","570150","103.855213610026","1.34452706925104","BISHAN STREET 11, 570150"
"100","kml_100","BL MEDICAL ASSOCIATES","118222","103.784855036241","1.29076149231466","SCIENCE PARK DRIVE, 118222"
"101","kml_101","BOK FAMILY CLINIC  PTE LTD","470117","103.908688936297","1.33141324887407","BEDOK RESERVOIR ROAD, 470117"
"102","kml_102","BOON KENG CLINIC & SURGERY","380011","103.870914031071","1.31423937057055","UPPER BOON KENG RD, 380011"
"103","kml_103","BOON LAY CENTRAL CLINIC","640221","103.712429315355","1.3463481965558","BOON LAY PLACE, 640221"
"104","kml_104","BOON LAY CLINIC & SURGERY","640221","103.712429315355","1.3463481965558","BOON LAY PLACE, 640221"
"105","kml_105","BOON LAY CORPORATION CLINIC","600350","103.731255559658","1.34404941870857","JURONG EAST AVENUE 1, 600350"
"106","kml_106","BOSTON MEDICAL","380119","103.886058091098","1.32012887334325","ALJUNIED AVENUE 2, 380119"
"107","kml_107","BUKIT BATOK MEDICAL CLINIC","650207","103.749382188619","1.3462486617594","BUKIT BATOK ST 21, 650207"
"108","kml_108","BUKIT TIMAH CLINIC","269731","103.809058595403","1.3245755173538","BUKIT TIMAH ROAD, 269731"
"109","kml_109","BUKIT TIMAH NAM SANG  CLINIC","598591","103.773237589356","1.34055525010784","JLN JURONG KECHIL, 598591"
"110","kml_110","Banyan Clinic Pte Ltd.","730768","103.798140993881","1.44562290748789","Woodlands Avenue 6, 730768"
"111","kml_111","Beo Crescent Clinic & Surgery","160040","103.827513018591","1.28905789113721","Beo Crescent, 160040"
"112","kml_112","Bethesda Medical Centre","038983","103.859014406987","1.29593189474123","TEMASEK BOULEVARD, 038983"
"113","kml_113","Bless Medical Centre Pte Ltd","640221","103.712429315355","1.3463481965558","BOON LAY PLACE, 640221"
"114","kml_114","Braddell Family Clinic","310124","103.844627301844","1.33864876707252","LORONG 1 TOA PAYOH, 310124"
"115","kml_115","C & K FAMILY CLINIC PTE LTD","455297","103.92930519829","1.31316934216382","UPPER EAST COAST ROAD, 455297"
"116","kml_116","C H TAN MEDICAL CLINIC & DENTAL SURGERY","650177","103.741742087355","1.34634407478636","BT BATOK WEST AVE 8, 650177"
"117","kml_117","C K TAN FAMILY CLINIC & SURGERY PTE LTD","310125","103.845737117486","1.33833133425818","TOA PAYOH LOR 1, 310125"
"118","kml_118","C Y KOK CLINIC & SURGERY","560157","103.839395071325","1.37530562129984","ANG MO KIO AVE 4, 560157"
"119","kml_119","C.M.C. WONG BINJAI CLINIC","589824","103.786854059334","1.33622384171884","BINJAI PARK, 589824"
"120","kml_120","C3 Family Clinic @Aljunied Crescent","380095","103.886195689055","1.32170328990751","ALJUNIED CRESCENT, 380095"
"121","kml_121","CARE MEDICAL PTE LTD","530683","103.886367847372","1.37331270083797","HOUGANG AVE 8, 530683"
"122","kml_122","CARITAS CLINIC","400304","103.901228610039","1.32955256814021","UBI AVE 1, 400304"
"123","kml_123","CASHEW MEDICAL & SURGERY","670445","103.77076830515","1.38358044593591","FAJAR RD, 670445"
"124","kml_124","CASSIA CLINIC & SURGERY","390034","103.884471780069","1.30964078460585","CASSIA CRESCENT, 390034"
"125","kml_125","CCK FAMILY CLINIC","680304","103.743145847094","1.38449608058333","CHOA CHU KANG AVE 4, 680304"
"126","kml_126","CECILIA FAMILY CLINIC & SURGERY","520484","103.952639447158","1.36189785903603","TAMPINES ST 43, 520484"
"127","kml_127","CENTRAL 24-HR CLINIC (BEDOK)","460219","103.932948087726","1.32496457671995","BEDOK CENTRAL, 460219"
"128","kml_128","CENTRAL 24-HR CLINIC (CLEMENTI)","120450","103.765476305113","1.31353886094619","Clementi Ave 3, 120450"
"129","kml_129","CENTRAL 24-HR CLINIC (HOUGANG)","530681","103.885679159796","1.37297840263115","HOUGANG AVE 8, 530681"
"130","kml_130","CENTRAL 24-HR CLINIC (MARSILING)","730303","103.774011078502","1.43079961597954","WOODLANDS STREET 31, 730303"
"131","kml_131","CENTRAL 24-HR CLINIC (PASIR RIS)","510446","103.957726864829","1.37030619330386","PASIR RIS DRIVE 6, 510446"
"132","kml_132","CENTRAL 24-HR CLINIC (TAMPINES)","524201","103.953586491461","1.35226231434834","TAMPINES STREET 21, 524201"
"133","kml_133","CENTRAL 24-HR CLINIC (WOODLANDS)","730768","103.798140993881","1.44562290748789","WOODLANDS AVENUE 6, 730768"
"134","kml_134","CENTRAL 24-HR CLINIC (YISHUN)","761701","103.827943218947","1.4298784547931","YISHUN AVE 5, 761701"
"135","kml_135","CENTRAL MEDICAL GROUP PTE LTD","150011","103.808963346658","1.28662190371744","JALAN BUKIT MERAH, 150011"
"136","kml_136","CHAI CHEE CLINIC & SURGERY","461025","103.924149637094","1.32328959901597","CHAI CHEE RD, 461025"
"137","kml_137","CHAN FAMILY CLINIC","437844","103.901515916912","1.30409731167599","MOUNTBATTEN ROAD, 437844"
"138","kml_138","CHANG CLINIC","588996","103.77860007818","1.3387593077272","JLN ANAK BUKIT, 588996"
"139","kml_139","CHANG CLINIC & SURGERY","080007","103.838679504053","1.27692435181046","EVERTON PARK, 080007"
"140","kml_140","CHARIS CLINIC & SURGERY","521164","103.9460006915","1.3496215147162","TAMPINES ST 12, 521164"
"141","kml_141","GOH CLINIC + SURGERY","650283","103.757539380941","1.34694365739119","BT BATOK EAST AVE 3, 650283"
"142","kml_142","GOODDOCTORS MEDICAL CLINIC","768897","103.841660985807","1.43312284024159","YISHUN AVENUE 9, 768897"
"143","kml_143","GRACE CLINIC & SURGERY","560607","103.838816721495","1.38046758627437","ANG MO KIO AVE 4, 560607"
"144","kml_144","GREAT HEALTH MEDICAL CLINIC","560407","103.855247666969","1.36191347168144","ANG MO KIO AVENUE 10, 560407"
"145","kml_145","GREEN CROSS MEDICAL CENTRE","520824","103.932714940567","1.34903743492173","TAMPINES ST 81, 520824"
"146","kml_146","GREENLIFE CLINIC & SURGERY","759775","103.820139486431","1.44902668521597","CANBERRA RD, 759775"
"147","kml_147","GREENLIFE CLINIC & SURGERY","680624","103.747084778715","1.3980473611046","CHOA CHU KANG STREET 62, 680624"
"148","kml_148","GREENLINK MEDICAL CLINIC","760807","103.831578419639","1.41649875780089","YISHUN RING ROAD, 760807"
"149","kml_149","GSH CLINIC & SURGERY PTE. LTD.","545523","103.876883622707","1.35466521856974","YIO CHU KANG ROAD, 545523"
"150","kml_150","Gerrard Teoh Hematology & Medical Clinic","307506","103.844160709873","1.3207051098625","SINARAN DRIVE, 307506"
"151","kml_151","GreenForest Family Clinic","523878","103.929363834353","1.35126411242426","TAMPINES AVENUE 8, 523878"
"152","kml_152","H S LEE CLINIC & SURGERY","760173","103.831120689791","1.43706628201915","YISHUN AVE 7, 760173"
"153","kml_153","HARMONY FAMILY CLINIC","680235","103.748749195678","1.3797566438487","CHOA CHU KANG CENTRAL, 680235"
"154","kml_154","HAVELOCK FAMILY CLINIC","160022","103.828824191963","1.28874603715013","HAVELOCK RD, 160022"
"155","kml_155","HEAL MEDICAL CENTRE","329714","103.85319966194","1.32213342793662","BALESTIER ROAD, 329714"
"156","kml_156","HEALTH PARTNERS FAMILY CLINIC","658713","103.749244800522","1.35001920966652","BT BATOK CENTRAL LINK, 658713"
"157","kml_157","HEALTH PARTNERS MEDICAL CLINIC","069532","103.848958253576","1.28113563498683","Cecil Street, 069532"
"158","kml_158","HEALTH PARTNERS MEDICAL CLINIC (SIGLAP)","455289","103.926329604059","1.31312677933466","UPPER EAST COAST ROAD, 455289"
"159","kml_159","HEALTH PARTNERSHIP MEDICAL CENTRE","090109","103.825310761058","1.27392939913176","BUKIT PURMEI RD, 090109"
"160","kml_160","HEALTHBRIDGE FAMILY CLINIC","821615","103.909541012266","1.40386056418231","EDGEFIELD PLAINS, 821615"
"161","kml_161","HEALTHCARE FAMILY CLINIC & SURGERY","570403","103.833604034065","1.36287032246814","SIN MING AVE, 570403"
"162","kml_162","HEALTHCARE MEDICAL @ Kovan","530208","103.886636110951","1.35869679921108","HOUGANG STREET 21, 530208"
"163","kml_163","HEALTHCARE MEDICAL @ RAILMALL","678067","103.767604074877","1.35960982893863","UPPER BUKIT TIMAH ROAD,, 678067"
"164","kml_164","HEALTHIFY MEDICAL FAMILY CLINIC","329714","103.85319966194","1.32213342793662","BALESTIER ROAD, 329714"
"165","kml_165","HEALTHLINE FAMILY CLINIC & SURGERY PTE. LTD.","461025","103.924149637094","1.32328959901597","CHAI CHEE ROAD, 461025"
"166","kml_166","HEALTHLINK (AMK) MEDICAL CENTRE","560108","103.838201939907","1.37096635229769","ANG MO KIO AVE 4, 560108"
"167","kml_167","HEALTHLINK FAMILY CLINIC & SURGERY","270021","103.788545950367","1.31010302628844","GHIM MOH ROAD, 270021"
"168","kml_168","EVERHEALTH MEDICAL CENTRE","530540","103.891282466742","1.37781568096983","HOUGANG AVENUE 8, 530540"
"169","kml_169","EVERTON CLINIC","080007","103.838679504053","1.27692435181046","EVERTON PARK, 080007"
"170","kml_170","EVERWELL CLINIC & SURGERY","210045","103.850825476113","1.31559567557441","OWEN RD, 210045"
"171","kml_171","EXCEL FAMILY CLINIC","538719","103.88783201701","1.37924529078289","HOUGANG ST 51, 538719"
"172","kml_172","EXCELSIOR CLINIC & SURGERY","650283","103.757539380941","1.34694365739119","BT BATOK EAST AVE 3, 650283"
"173","kml_173","Edgedale Medical Clinic (Cambridge)","210040","103.848243054151","1.3159930169211","CAMBRIDGE ROAD, 210040"
"174","kml_174","Elissa Medical Clinic","538692","103.879472338027","1.37571530662888","HOUGANG STREET 91, 538692"
"175","kml_175","Elyon Family Clinic And Surgery","102078","103.808335234688","1.27363296004244","TELOK BLANGAH STREET 32, 102078"
"176","kml_176","Etern Medical Clinic","828868","103.902072622227","1.40454653696814","PUNGGOL CENTRAL, 828868"
"177","kml_177","Etern Medical Clinic (Fernvale Palm)","791432","103.877202311346","1.39475047621055","SENGKANG WEST WAY, 791432"
"178","kml_178","Etern Medical Clinic (Sengkang)","797653","103.876125506847","1.39147015412078","SENGKANG WEST AVENUE, 797653"
"179","kml_179","Eterna Medical Clinic","560629","103.840408652686","1.38010475022238","ANG MO KIO AVENUE 4, 560629"
"180","kml_180","F K LIM FAMILY CLINIC","520267","103.949259231371","1.3507727878183","TAMPINES ST 21, 520267"
"181","kml_181","FAITH CLINIC (BEDOK)","470746","103.921215743798","1.33728644810221","BEDOK RESERVOIR ROAD, 470746"
"182","kml_182","FAITH CLINIC (SIMEI)","520139","103.956561347989","1.34668351018352","SIMEI ST 1, 520139"
"183","kml_183","FAITH CLINIC (TOA PAYOH)","310211","103.853768900177","1.34042178823098","TOA PAYOH LOR 8, 310211"
"184","kml_184","FAITH CLINIC (YISHUN)","768698","103.841268831273","1.41795288509924","YISHUN RING ROAD, 768698"
"185","kml_185","FAITH FAMILY CLINIC","440057","103.91548479998","1.30651257339373","MARINE TERRACE, 440057"
"186","kml_186","FAITH HEALTHCARE (RIVERVALE)","545082","103.904483668484","1.39250411008759","RIVERVALE CRESCENT, 545082"
"187","kml_187","FAITH HEALTHCARE (TAMPINES)","529287","103.959900188924","1.3545494425702","TAMPINES STREET 32, 529287"
"188","kml_188","FAITH MEDICAL CLINIC & SURGERY","522487","103.957884241959","1.36075820419992","TAMPINES ST 45, 522487"
"189","kml_189","FAJAR FAMILY CLINIC & SURGERY","670445","103.77076830515","1.38358044593591","FAJAR ROAD, 670445"
"190","kml_190","FAMILY CARE CLINIC & SURGERY","560608","103.836760311656","1.37858210019768","ANG MO KIO AVE 5, 560608"
"191","kml_191","FAMILY CARE CLINIC PTE LTD","650415","103.746610701854","1.36326877933412","BT BATOK WEST AVE 4, 650415"
"192","kml_192","FAMILY CARE MEDICAL CENTRE PTE LTD","530916","103.884293734337","1.37491294218702","Hougang Ave 9, 530916"
"193","kml_193","FAMILY HEALTH CLINIC","270043","103.792897574707","1.3074341112717","Holland Drive, 270043"
"194","kml_194","FAMILY HEALTH CLINIC & SURGERY","320002","103.842935479988","1.32589620222","BALESTIER ROAD, 320002"
"195","kml_195","FAMILY HEALTH MEDICAL CENTRE","567226","103.839861074062","1.36682590272899","ANG MO KIO AVE 1, 567226"
"196","kml_196","CLIFFORD DISPENSARY PTE LTD","819658","103.985459981704","1.34821194016273","AIRPORT BOULEVARD, 819658"
"197","kml_197","CLIFFORD DISPENSARY PTE LTD","238868","103.831507365278","1.30580981572661","ORCHARD ROAD, 238868"
"198","kml_198","CLINIC @ THE SAIL","018987","103.85265856205","1.28076943496046","MARINA BOULEVARD, 018987"
"199","kml_199","CLINIC FARIDAH","461059","103.940695612374","1.32405898637368","NEW UPPER CHANGI ROAD, 461059"
"200","kml_200","CLINICAL ASSOCIATES MEDICAL CENTRE","680137","103.752483840899","1.38004753002611","TECK WHYE LANE, 680137"
"201","kml_201","CMY Medical","461037","103.926207634385","1.32544200316618","CHAI CHEE AVENUE, 461037"
"202","kml_202","COMFORT CLINIC & SURGERY","550214","103.873633486993","1.35732435179355","SERANGOON AVE 4, 550214"
"203","kml_203","COMPASSVALE 297A MEDICAL CLINIC","541297","103.900697317522","1.39483596046538","COMPASSVALE ST, 541297"
"204","kml_204","COUNTRYSIDE CLINIC AND SURGERY","760106","103.827452004281","1.43147861410692","YISHUN RING RD, 760106"
"205","kml_205","CRAWFURD MEDICAL","038983","103.859014406987","1.29593189474123","TEMASEK BOULEVARD, 038983"
"206","kml_206","CRESCENT CLINIC &  SURGERY","401001","103.902727807655","1.32129030506821","EUNOS CRESCENT, 401001"
"207","kml_207","CREST FAMILY CLINIC PTE. LTD.","730724","103.79871304314","1.44466656455938","WOODLANDS AVE 6, 730724"
"208","kml_208","CROSS STREET MEDICAL CLINIC","050531","103.846101472114","1.28439238197795","UPPER CROSS STREET, 050531"
"209","kml_209","Calrose Medical Family Clinic","821231","103.891879097963","1.40205917712603","SUMANG LANE, 821231"
"210","kml_210","Camry Medical Centre","310095","103.848993317286","1.33889072192265","Toa Payoh Lorong 4, 310095"
"211","kml_211","Canberra Care Medical Clinic","750120","103.831508132382","1.4456745291262","CANBERRA CRESCENT, 750120"
"212","kml_212","Care Family Clinic","210663","103.850857725358","1.30568031682027","BUFFALO ROAD, 210663"
"213","kml_213","Caring Family Clinic","640501","103.719222201398","1.34981225393483","JURONG WEST STREET 51, 640501"
"214","kml_214","Central 24-HR Clinic ( Pioneer North )","640959","103.690721731343","1.34148123560942","JURONG WEST STREET 92, 640959"
"215","kml_215","Central 24HR Clinic (Jurong West)","640492","103.725180466271","1.34994543580238","JURONG WEST STREET 41, 640492"
"216","kml_216","Changi Clinic","400848","103.901431784397","1.31720886041624","Sims Avenue, 400848"
"217","kml_217","Chin Medical Clinic","671524","103.766228468168","1.38540569301034","JELAPANG ROAD, 671524"
"218","kml_218","Chua & Partners Family Clinic","164018","103.826785447839","1.28569742860668","Jalan Membina, 164018"
"219","kml_219","Chua Medical Centre Pte Ltd","520248","103.953541142784","1.34359376286677","Simei St 3, 520248"
"220","kml_220","Chua Medical Clinic And Surgery Pte. Ltd.","650642","103.751706683251","1.34900647929724","BUKIT BATOK CENTRAL, 650642"
"221","kml_221","Chung & Ee Medical Clinic","090010","103.819769431776","1.27773153221637","TELOK BLANGAH CRESCENT, 090010"
"222","kml_222","Circuit Medical Clinic","370036","103.886930797614","1.32902607935956","CIRCUIT ROAD, 370036"
"223","kml_223","CityGP Family Clinic","460122","103.937787149156","1.32861719819575","BEDOK NORTH STREET 2, 460122"
"224","kml_224","CityHealth Clinic & Surgery","189721","103.859351023904","1.29884087991136","Beach Road, 189721"
"225","kml_225","Clinic@Costa","469994","103.940116990924","1.31218816522514","BAYSHORE ROAD, 469994"
"226","kml_226","Clover Medical Clinic Pte Ltd","689578","103.746637430571","1.39706712804272","CHOA CHU KANG NORTH 6, 689578"
"227","kml_227","Cornerstone Medical","271029","103.784598100789","1.30849288053919","GHIM MOH LINK, 271029"
"228","kml_228","Cornerstone Medical Bidadari","341106","103.871259715426","1.33413900018418","BIDADARI PARK DRIVE, 341106"
"229","kml_229","Corporation Clinic (Choa Chu Kang)","680253","103.744393648371","1.37736607411235","Choa Chu Kang Ave 1, 680253"
"230","kml_230","Crossroads Family Clinic","522601","103.937510784032","1.36088277451527","TAMPINES AVENUE 9, 522601"
"231","kml_231","DA CLINIC @ POTONG PASIR","347697","103.868214025397","1.33149708060439","UPPER SERANGOON ROAD, 347697"
"232","kml_232","DA Clinic @ Anson","079903","103.84592379296","1.27588674304532","ANSON ROAD, 079903"
"233","kml_233","DA clinic @ Anchorvale","540351","103.886617624917","1.39332786576656","ANCHORVALE ROAD, 540351"
"234","kml_234","DA clinic @ Bukit Batok","650451","103.743948447105","1.35303824914482","BUKIT BATOK WEST AVENUE 6, 650451"
"235","kml_235","DA clinic @ Sembawang","758459","103.824845207379","1.44182470635163","SEMBAWANG ROAD, 758459"
"236","kml_236","DA clinic @ Taman Jurong","610410","103.581751807954","1.01626425482099","Corporation Drive, 610410"
"237","kml_237","DAILY MEDICAL CENTRE","530159","103.879517231861","1.35144832553092","HOUGANG STREET 11, 530159"
"238","kml_238","DAVITA MEDICAL & DIALYSIS CENTRE (JURONG EAST)","608526","103.744574632224","1.33015172116219","VENTURE DRIVE, 608526"
"239","kml_239","DAYSPRING MEDICAL CLINIC (TAMPINES)","529509","103.943812302435","1.35236829560034","TAMPINES CENTRAL 5, 529509"
"240","kml_240","DOCTORS FOR LIFE MEDICAL","048660","103.847429981968","1.28428813152396","PICKERING STREET, 048660"
"241","kml_241","DOCTORS INC MEDICAL GROUP","310178","103.849264521174","1.33358025833851","TOA PAYOH CENTRAL, 310178"
"242","kml_242","DOCTORS KOO, LOH & ASSOCIATES (PTE) LTD","610152","103.720708632127","1.32707670705423","YUNG HO RD, 610152"
"243","kml_243","DOVER MEDICAL CENTRE","138632","103.787581248398","1.29915016462316","FUSIONOPOLIS WAY, 138632"
"244","kml_244","DR CHUA'S FAMILY CLINIC PTE. LTD.","640638","103.697174842354","1.34169239237791","JURONG WEST STREET 61, 640638"
"245","kml_245","DR JOYCE & PARTNERS FAMILY CLINIC","821224","103.892811293348","1.40195621611022","SUMANG LANE, 821224"
"246","kml_246","DR LIM LEAN HUAT & ASSOCIATES PTE LTD","329565","103.843252763122","1.32047597480701","IRRAWADDY ROAD, 329565"
"247","kml_247","DR SOH FAMILY CLINIC","640966","103.692916978325","1.34170245992124","JURONG WEST STREET 93, 640966"
"248","kml_248","DRS CHUA & PARTNERS PTE LTD","082001","103.842433596845","1.27568702794453","TANJONG PAGAR PLAZA, 082001"
"249","kml_249","DRS KOO, KOH & ASSOCIATES P.L.","150163","103.817072709118","1.2836613928251","BUKIT MERAH CENTRAL, 150163"
"250","kml_250","DRS LIM & CHAN CLINIC","531002","103.875680063619","1.35060795579762","LOR LEW LIAN, 531002"
"251","kml_251","DRS LIM & CHAN CLINIC","530106","103.890680792157","1.35370297114613","HOUGANG AVE 1, 530106"
"252","kml_252","DRS OH, LIM, WONG & PARTNERS","640959","103.690721731343","1.34148123560942","JURONG WEST ST 92, 640959"
"253","kml_253","DRS SINGH & PARTNERS, RAFFLES CITY MEDICAL CENTRE","179103","103.8527683243","1.29376028146733","NORTH BRIDGE RD, 179103"
"254","kml_254","DRS TANG & PARTNERS PTE. LTD.","610064","103.722451247982","1.33237347600046","YUNG KUANG ROAD, 610064"
"255","kml_255","DTAP @ Robertson","237995","103.841475100183","1.29189934215369","UNITY STREET, 237995"
"256","kml_256","DTAP @ SIGLAP","459108","103.92444984956","1.31205928217535","EAST COAST ROAD, 459108"
"257","kml_257","DTAP @ Somerset","239693","103.837359153263","1.30139878843175","GRANGE ROAD, 239693"
"258","kml_258","DUXTON MEDICAL CLINIC CANBERRA","750361","103.813936814037","1.44631506786133","SEMBAWANG CRESCENT, 750361"
"259","kml_259","DaVita Medical & Dialysis Centre (Farrer Park)","217562","103.853929522028","1.31247324146379","FARRER PARK STATION ROAD, 217562"
"260","kml_260","DaVita Medical & Dialysis Centre (Novena)","329565","103.843252763122","1.32047597480701","IRRAWADDY ROAD, 329565"
"261","kml_261","Dawson Medical Clinic","141085","103.809758591462","1.29531966312279","DAWSON ROAD, 141085"
"262","kml_262","Doctors Clinic & Surgery","730305","103.774102413755","1.43036145793777","Woodlands Street 31, 730305"
"263","kml_263","Dover Clinic and Surgery Pte Ltd","130028","103.781779696786","1.30446092684555","DOVER CRESCENT, 130028"
"264","kml_264","Dr Chen and Partners Medical Clinic","575630","103.835564729732","1.35319495294524","SIN MING ROAD, 575630"
"265","kml_265","Dr Chua & Lee Family Clinic","570213","103.848152968836","1.35717822107249","BISHAN STREET 23, 570213"
"266","kml_266","Dr Gary's Family Clinic","160077","103.826764453903","1.29113483647707","INDUS ROAD, 160077"
"267","kml_267","Dr Jeremy Chan Medical Clinic","310123","103.845703844549","1.33864901778038","LORONG 1 TOA PAYOH, 310123"
"268","kml_268","Dr Joyce & Partners Family Clinic (Toa Payoh Branch)","310177","103.848854818027","1.33390034089973","TOA PAYOH CENTRAL, 310177"
"269","kml_269","Dr Nah & Lee Family Clinic","730780","103.801057143564","1.4483415501858","WOODLANDS CRESCENT, 730780"
"270","kml_270","Dr Stanley Peck Family Clinic","650636","103.751825709259","1.34963274148521","BUKIT BATOK CENTRAL, 650636"
"271","kml_271","Dr Steven Ang Aesthetic & Family Clinic","154075","103.815711568942","1.28846476848129","Redhill Road, 154075"
"272","kml_272","Dr W.K. Koo & Associates P.L.","648886","103.706685012636","1.33945271688955","JURONG WEST CENTRAL 2, 648886"
"273","kml_273","Dr.W Family Clinic","260008","103.805373812286","1.31641190070436","EMPRESS ROAD, 260008"
"274","kml_274","Drs Chan & Tang Family Clinic","310125","103.845737117486","1.33833133425818","LORONG 1 TOA PAYOH, 310125"
"275","kml_275","Drs Koo, Fok & Associates Pte Ltd","629907","103.678410551478","1.32561764091444","BENOI ROAD, 629907"
"276","kml_276","Drs Koo, Fok & Associates( Pioneer )","648310","103.697321608176","1.3375870106289","JURONG WEST STREET 63, 648310"
"277","kml_277","Duxton Medical Clinic","081007","103.84311774345","1.27712012192209","TANJONG PAGAR PLAZA, 081007"
"278","kml_278","E MEDICAL CLINIC & SURGERY","310126","103.845130852041","1.33781465664298","LORONG 1 TOA PAYOH, 310126"
"279","kml_279","E. L. CHIN FAMILY CLINIC & SURGERY PTE. LTD.","120432","103.762740587674","1.31402057647513","CLEMENTI AVE 3, 120432"
"280","kml_280","E.J. TAN CLINIC & SURGERY","600104","103.737623303578","1.33658465341547","JURONG EAST STREET 13, 600104"
"281","kml_281","EAST COAST FAMILY CLINIC","437932","103.894446070261","1.29769266267746","MEYER ROAD, 437932"
"282","kml_282","EAST COAST MEDICAL CENTRE PTE LTD","462057","103.941288714677","1.32371678656959","NEW UPPER CHANGI RD, 462057"
"283","kml_283","EASTERN CLINIC & SURGERY PTE LTD","600235","103.742159955431","1.33997597903837","JURONG EAST STREET 21, 600235"
"284","kml_284","EASTERN CLINIC & SURGERY PTE LTD","600318","103.73056069188","1.34750822879295","JURONG EAST STREET 31, 600318"
"285","kml_285","EASTERN CLINIC AND DENTAL SURGERY","600303","103.735622181592","1.34485611221062","JURONG EAST ST 32, 600303"
"286","kml_286","EASTERN MEDICAL CENTRE","470631","103.914941831149","1.33295923548327","BEDOK RESERVOIR RD, 470631"
"287","kml_287","EC Family Clinic","409423","103.903047958629","1.31976065842876","EUNOS CRESCENT, 409423"
"288","kml_288","EDGEDALE MEDICAL CLINIC","821122","103.90910656253","1.39350981246858","EDGEDALE PLAINS, 821122"
"289","kml_289","EE CLINIC","560128","103.843546990564","1.3708320282205","ANG MO KIO AVE 3, 560128"
"290","kml_290","EH MEDICAL FAMILY CLINIC (BUKIT BATOK)","650292","103.755375174448","1.34449810534059","BUKIT BATOK EAST AVENUE 6, 650292"
"291","kml_291","EH Medical","735785","103.805487571931","1.44680413878616","WOODLANDS RISE, 735785"
"292","kml_292","EHA CLINIC @ Jurong","640492","103.725180466271","1.34994543580238","JURONG WEST STREET 41, 640492"
"293","kml_293","EJ FAMILY CLINIC & SURGERY","310109","103.846202461177","1.34123727109327","TOA PAYOH LOR 1, 310109"
"294","kml_294","EL SHADDAI ARTHRITIS + RHEUMATISM SPECIALIST MEDICAL CENTRE","322102","103.862002015014","1.32058609482407","TOWNER ROAD, 322102"
"295","kml_295","ELIAS FAMILY CLINIC & SURGERY","510625","103.941978174961","1.37860239755804","ELIAS RD, 510625"
"296","kml_296","EMMANUEL MEDICAL CLINIC","520272","103.95028148718","1.34915941815592","TAMPINES ST 22, 520272"
"297","kml_297","EON MEDICAL CLINIC","530475","103.900675272909","1.37571547934496","UPPER SERANGOON CRESCENT, 530475"
"298","kml_298","ESSENTIAL FAMILY CLINIC & SURGERY","731626","103.800131263153","1.43409799393499","WOODLANDS DR 52, 731626"
"299","kml_299","ESTEEMED MEDICAL CLINIC","560260","103.834501165254","1.36891592440303","ANG MO KIO STREET 21, 560260"
"300","kml_300","ESTHER YEO CLINIC","600256","103.738263366894","1.34416527281328","JURONG EAST ST 24, 600256"
"301","kml_301","ETERN MEDICAL CLINIC (PUNGGOL SUMANG LRT)","823308","103.899074358389","1.40800694968972","PUNGGOL WALK, 823308"
"302","kml_302","EVANGEL MEDICAL CLINIC","467010","103.924803599547","1.32727572409468","CHAI CHEE RD, 467010"
"303","kml_303","EVERCARE MEDICAL CLINIC","680253","103.744393648371","1.37736607411235","CHOA CHU KANG AVE 1, 680253"
"304","kml_304","EVERCARE MEDICAL CLINIC (475) PTE LTD","680475","103.739015486131","1.37789727696934","CHOA CHU KANG AVE 3, 680475"
"305","kml_305","EVERHEALTH FAMILY CLINIC & SURGERY","640762","103.697732090659","1.34874357156987","JURONG WEST ST 75, 640762"
"306","kml_306","FAMILY HEALTHCARE CLINIC & SURGERY PTE LTD","530523","103.890706990241","1.37372091211225","HOUGANG AVE 6, 530523"
"307","kml_307","FAMILY LIFE CLINIC","120727","103.763817745262","1.3046248764802","CLEMENTI WEST ST 2, 120727"
"308","kml_308","FAMILY MEDICAL CLINIC PTE LTD","650280","103.757044584459","1.3477014777938","BT BATOK EAST AVE 3, 650280"
"309","kml_309","FAMILY MEDICARE CLINIC & SURGERY","560721","103.847899479496","1.37234984800157","ANG MO KIO AVE 8, 560721"
"310","kml_310","FAMILY MEDICINE CLINIC","440058","103.914026029639","1.30611781278668","MARINE TERRACE, 440058"
"311","kml_311","FAMILYCARE CLINIC & SURGERY","313085","103.847479439025","1.33628570923804","TOA PAYOH LOR 4, 313085"
"312","kml_312","FEMA CLINIC & SURGERY","307506","103.844160709873","1.3207051098625","SINARAN DRIVE, 307506"
"313","kml_313","FINEST HEALTH MEDICAL CENTRE","310019","103.856504185567","1.33528228586453","LORONG 7 TOA PAYOH, 310019"
"314","kml_314","FIRST CARE FAMILY CLINIC & SURGERY","600253","103.736785753592","1.34318835753237","JURONG EAST ST 24, 600253"
"315","kml_315","FIRST MEDICAL CENTRE PTE LTD","140169","103.803105949038","1.29043486494243","STIRLING ROAD, 140169"
"316","kml_316","FIRST MEDICAL CLINIC & SURGERY","730167","103.775884057974","1.43359370625977","WOODLANDS ST 11, 730167"
"317","kml_317","FIRSTHEALTH CLINIC & SURGERY","160126","103.829470015099","1.28253466924079","KIM TIAN ROAD, 160126"
"318","kml_318","FOCUS MEDICAL CENTRE","680137","103.752483840899","1.38004753002611","TECK WHYE LANE, 680137"
"319","kml_319","FONG CLINIC","140162","103.802856952292","1.2922546717017","MEI LING ST, 140162"
"320","kml_320","FOO CLINIC","640962","103.69148311528","1.34201784065971","JURONG WEST ST 91, 640962"
"321","kml_321","FRASER MEDICAL CENTRE","101078","103.808980553653","1.27338751529297","TELOK BLANGAH ST 32, 101078"
"322","kml_322","FRIENDSHIP CLINIC & SURGERY","150001","103.808242400061","1.28645354013154","JALAN BUKIT MERAH, 150001"
"323","kml_323","FRONTIER MEDICAL ASSOCIATES","530982","103.879309094037","1.38085035421403","BUANGKOK CRESCENT, 530982"
"324","kml_324","FRONTIER MEDICAL ASSOCIATES","560163","103.838176471518","1.37354853932334","ANG MO KIO AVE 4, 560163"
"325","kml_325","FRONTIER MEDICAL ASSOCIATES","400304","103.901228610039","1.32955256814021","UBI AVENUE 1, 400304"
"326","kml_326","FRONTIER MEDICAL ASSOCIATES","732899","103.795261266782","1.43656985620916","WOODLANDS DR 50, 732899"
"327","kml_327","FRONTIER MEDICAL ASSOCIATES","760654","103.840410312781","1.42305346406148","YISHUN AVE 4, 760654"
"328","kml_328","FRONTIER MEDICAL ASSOCIATES","750105","103.8324062093","1.44885888645002","CANBERRA STREET, 750105"
"329","kml_329","FRONTIER MEDICAL ASSOCIATES","650440","103.739303105448","1.35572308150266","BUKIT BATOK WEST AVENUE 8, 650440"
"330","kml_330","FRONTIER MEDICAL ASSOCIATES","650451","103.743948447105","1.35303824914482","BUKIT BATOK WEST AVE 6, 650451"
"331","kml_331","FRONTIER MEDICAL ASSOCIATES","730691","103.806198056521","1.44062992413871","WOODLANDS DRIVE 73, 730691"
"332","kml_332","FULLERTON HEALTH @ DRS TRYTHALL HOY DAVIES","238874","103.834676124776","1.30242417185937","ORCHARD ROAD, 238874"
"333","kml_333","FULLERTON HEALTHCARE @ ARC","119963","103.801264139133","1.27398640019417","ALEXANDRA ROAD, 119963"
"334","kml_334","FUSION MEDICAL HEALTH SCREENING & AESTHETIC","238880","103.830642027915","1.30467628686208","ORCHARD ROAD, 238880"
"335","kml_335","Faith Clinic (Jurong West)","640762","103.697732090659","1.34874357156987","JURONG WEST ST 75, 640762"
"336","kml_336","Famicare Bedok Clinic Pte Ltd","460158","103.945086743402","1.31873582672514","Bedok South Avenue 3, 460158"
"337","kml_337","Family Doctors at 365","610365","103.720184719407","1.33772592748385","CORPORATION DRIVE, 610365"
"338","kml_338","Family Medicine Clinic Chinatown","059413","103.844697080902","1.28499882861736","NEW BRIDGE ROAD, 059413"
"339","kml_339","Fernvale Family Clinic","793405","103.873437403062","1.38919466650292","FERNVALE LANE, 793405"
"340","kml_340","First Light Family Clinic & Surgery","650272","103.757864718234","1.34879030670709","Bukit Batok East Avenue 4, 650272"
"341","kml_341","Foo And Ong Family Clinic Pte. Ltd.","650151","103.744211484368","1.34874703498808","BUKIT BATOK ST 11, 650151"
"342","kml_342","Frontier Family Medicine Clinic","129581","103.76514748726","1.3142704390532","COMMONWEALTH AVENUE WEST, 129581"
"343","kml_343","Frontier Medical Associates","644678","103.703395356357","1.34486489516062","JURONG WEST STREET 64, 644678"
"344","kml_344","Frontier People's Clinic","460123","103.937343348132","1.32919868633173","BEDOK NORTH STREET 2, 460123"
"345","kml_345","Fullerton Health @ NTU","639801","103.682668844091","1.34536991705032","NANYANG AVENUE, 639801"
"346","kml_346","Fullerton Health @ OFC","049315","103.851909612057","1.28320475137081","COLLYER QUAY, 049315"
"347","kml_347","Fullerton Health @ Watsons (Changi City Point)","486038","103.962946072076","1.33408360486513","CHANGI BUSINESS PARK CENTRAL 1, 486038"
"348","kml_348","Fullerton Healthcare @ Drs Trythall Hoy Davies","648886","103.706685012636","1.33945271688955","JURONG WEST CENTRAL 2, 648886"
"349","kml_349","Fullerton Healthcare @ Gethin-Jones","079120","103.84529056569","1.2732000622671","SHENTON WAY, 079120"
"350","kml_350","Fullerton Healthcare @ MBFC","018981","103.85374955327","1.27946938564498","MARINA BOULEVARD, 018981"
"351","kml_351","Fullerton Healthcare @ Metropolis","138588","103.791237458059","1.30624556797731","NORTH BUONA VISTA DRIVE, 138588"
"352","kml_352","Fullerton Healthcare Screening Centre","238874","103.834676124776","1.30242417185937","ORCHARD ROAD, 238874"
"353","kml_353","Fusion Medical & Health Screening Centre","138542","103.789607732973","1.29925468196734","FUSIONOPOLIS LINK, 138542"
"354","kml_354","G & H MEDICAL CLINIC PTE LTD","760106","103.827452004281","1.43147861410692","YISHUN RING ROAD, 760106"
"355","kml_355","G S CLINIC & SURGERY","560632","103.841432372506","1.37992681961038","ANG MO KIO AVE 4, 560632"
"356","kml_356","G.I.F.T MEDICAL CENTRE","367874","103.878829907545","1.33317933421739","UPPER ALJUNIED RD, 367874"
"357","kml_357","GARDEN CLINIC","550304","103.867773013652","1.35381345318208","SERANGOON AVE 2, 550304"
"358","kml_358","GEYLANG BAHRU CLINIC","380016","103.871651573599","1.31543175845042","UPPER BOON KENG RD, 380016"
"359","kml_359","GLOBAL CARE MEDICAL","769687","103.825776599298","1.44381831615093","JALAN MALU-MALU, 769687"
"360","kml_360","GOH CLINIC & SURGERY","530204","103.884988426823","1.3588191151875","HOUGANG ST 21, 530204"
"361","kml_361","HUA MEI CLINIC, WHAMPOA","327737","103.857201210738","1.32486749271072","WHAMPOA DRIVE, 327737"
"362","kml_362","HUAN CLINIC","160051","103.842029779252","1.2874030082089","CHIN SWEE ROAD, 160051"
"363","kml_363","HUI CLINIC + SURGERY","560157","103.839395071325","1.37530562129984","ANG MO KIO AVE 4, 560157"
"364","kml_364","HWANG & LIANG FAMILY CLINIC & SURGERY","520476","103.95335936462","1.36092283905723","TAMPINES ST 44, 520476"
"365","kml_365","Hamid Family Clinic & Surgery","510156","103.962895349626","1.36408364491692","Pasir Ris St 13, 510156"
"366","kml_366","Health First Family Clinic","161026","103.825595753279","1.28263437658533","JALAN MEMBINA, 161026"
"367","kml_367","HealthMatters - The Family Practice","519599","103.955444757708","1.37912717895311","Pasir Ris Close,, 519599"
"368","kml_368","HealthMed Family Clinic (Bukit Panjang)","670416","103.768454110363","1.38319686720506","Saujana Road, 670416"
"369","kml_369","Healthcare AMK Medical Clinic","560157","103.839395071325","1.37530562129984","ANG MO KIO AVENUE 4, 560157"
"370","kml_370","Healthcare Hougang Medical Clinic","530311","103.894853675365","1.36566733051337","HOUGANG AVENUE 5, 530311"
"371","kml_371","Healthlife Family Clinic","651296","103.746409176593","1.34409358188013","BUKIT BATOK STREET 22, 651296"
"372","kml_372","Healthmark Family Clinic (Compassvale)","540263","103.896042267939","1.39484816497783","Compassvale Street, 540263"
"373","kml_373","Healthmark Family Medicine Clinic","680601","103.744921736282","1.39693363037626","Choa Chu Kang St 62, 680601"
"374","kml_374","Healthmark Medical Clinic","820639","103.916054652799","1.39944615058909","Punggol Drive, 820639"
"375","kml_375","Healthmark Pioneer Mall Clinic","640638","103.697174842354","1.34169239237791","Jurong West Street 61, 640638"
"376","kml_376","Healthpath Medical Clinic and Surgery","560338","103.848986957423","1.3638957019431","ANG MO KIO AVENUE 1, 560338"
"377","kml_377","Healthsprings Medical & Laser Clinic","341105","103.870430572629","1.33400699198631","BIDADARI PARK DRIVE, 341105"
"378","kml_378","Healthsprings Medical Clinic","671524","103.766228468168","1.38540569301034","JELAPANG ROAD, 671524"
"379","kml_379","Healthway Medical","460218","103.934249434387","1.32749295502142","BEDOK NORTH ST 1, 460218"
"380","kml_380","Healthway Medical","538766","103.893775562591","1.37249493836098","Hougang Avenue 10, 538766"
"381","kml_381","Healthway Medical","640690","103.706710011276","1.34118688532867","JURONG WEST CENTRAL 1, 640690"
"382","kml_382","Healthway Medical","820168","103.913047323352","1.39423719749383","Punggol Field, 820168"
"383","kml_383","Healthway Medical","520503","103.945102946946","1.35580335647499","Tampines Central 1, 520503"
"384","kml_384","Healthway Medical","310177","103.848854818027","1.33390034089973","Toa Payoh Central, 310177"
"385","kml_385","Healthway Medical","530108","103.890093177136","1.3527739328609","HOUGANG AVE 1, 530108"
"386","kml_386","Healthway Medical","068815","103.849007895658","1.27796672374231","SHENTON WAY, 068815"
"387","kml_387","Healthway Medical","540118","103.901841043722","1.38533736141014","RIVERVALE DRIVE, 540118"
"388","kml_388","FAMILY HEALTHCARE CLINIC & SURGERY","550151","103.873778334173","1.36934534973621","SERANGOON NORTH AVE 2, 550151"
"389","kml_389","Healthway Medical","730888","103.79531438351","1.43712301469225","WOODLANDS DR 50, 730888"
"390","kml_390","Healthway Medical","524201","103.953586491461","1.35226231434834","TAMPINES STREET 21, 524201"
"391","kml_391","Healthway Medical","760101","103.827667722133","1.43053575388582","YISHUN AVENUE 5, 760101"
"392","kml_392","Healthway Medical","650446","103.739084635311","1.35017085094578","BUKIT BATOK WEST AVENUE 8, 650446"
"393","kml_393","Healthway Medical","328127","103.859085390214","1.31799485295601","SERANGOON ROAD, 328127"
"394","kml_394","Healthway Medical","760461","103.849972823964","1.42841471934027","YISHUN AVENUE 6, 760461"
"395","kml_395","Healthway Medical","540267","103.89704655689","1.38374441791265","Compassvale Link, 540267"
"396","kml_396","Healthway Medical","307506","103.844160709873","1.3207051098625","SINARAN DRIVE, 307506"
"397","kml_397","Healthway Medical","120727","103.763817745262","1.3046248764802","Clementi West  Street 2, 120727"
"398","kml_398","Healthway Medical","540308","103.886426650155","1.38955848478423","ANCHORVALE ROAD, 540308"
"399","kml_399","Healthway Medical","640960","103.691459639169","1.34138531152671","JURONG WEST ST 92, 640960"
"400","kml_400","Healthway Medical","680475","103.739015486131","1.37789727696934","CHOA CHU KANG AVE 3, 680475"
"401","kml_401","Healthway Medical","560721","103.847899479496","1.37234984800157","Ang Mo Kio Ave 8, 560721"
"402","kml_402","Healthway Medical","670445","103.77076830515","1.38358044593591","FAJAR ROAD, 670445"
"403","kml_403","Healthway Medical","520710","103.937730608185","1.35860238778915","TAMPINES ST 71, 520710"
"404","kml_404","Healthway Medical","120443","103.764010395269","1.31421051604588","CLEMENTI AVENUE 3, 120443"
"405","kml_405","Healthway Medical","757713","103.819502127479","1.44819535415187","SEMBAWANG DRIVE, 757713"
"406","kml_406","Healthway Medical","650153","103.744276460475","1.34747947809009","BUKIT BATOK ST 11, 650153"
"407","kml_407","Healthway Medical","730717","103.799494171179","1.44087378957359","WOODLANDS DRIVE 70, 730717"
"408","kml_408","Healthway Medical","560452","103.856200835268","1.36889751154086","ANG MO KIO AVE 10, 560452"
"409","kml_409","Healthwerkz Medical Centre (CCK)","680225","103.744889593655","1.38109065346169","CHOA CHU KANG CENTRAL, 680225"
"410","kml_410","Healthwerkz medical centre @ orchard","228210","103.832128173794","1.3065470470191","SCOTTS ROAD, 228210"
"411","kml_411","Heartland Family Clinic","763333","103.845790190573","1.43188998725882","YISHUN STREET 31, 763333"
"412","kml_412","HeartlandHealth","320087","103.855735558254","1.32328917056723","WHAMPOA DRIVE, 320087"
"413","kml_413","Hill Spring Medical","577552","103.829175553654","1.37154719878388","JALAN LEBAN, 577552"
"414","kml_414","Hisemainn Medical Clinic (Bukit Batok)","654289","103.759431387572","1.34417029371853","BUKIT BATOK ST 25, 654289"
"415","kml_415","Hisemainn Medical Clinic (Jurong West)","640276","103.703725312401","1.35361178019917","JURONG WEST ST 25, 640276"
"416","kml_416","Horizon Medical Centre","574424","103.836053648693","1.35184499139998","Upper Thomson Road, 574424"
"417","kml_417","LIFELINE BISHAN MEDICAL CLINIC","570501","103.84907733333","1.34841689766538","BISHAN ST 11, 570501"
"418","kml_418","LIFELINE BUKIT PANJANG MEDICAL CLINIC","670103","103.768538441068","1.37867070866309","GANGSA ROAD, 670103"
"419","kml_419","LIFELINE MEDICAL CENTRE","120710","103.761518107763","1.30628911897632","CLEMENTI WEST ST 2, 120710"
"420","kml_420","LIFELINE MEDICAL GROUP","540118","103.901841043722","1.38533736141014","RIVERVALE DRIVE, 540118"
"421","kml_421","LIFELINE NEIGHBOURHOOD MEDICAL CLINIC","650280","103.757044584459","1.3477014777938","BUKIT BATOK EAST AVE 3, 650280"
"422","kml_422","LIFELINE PUNGGOL MEDICAL CLINIC PTE LTD","820198","103.906402433947","1.39946295696544","PUNGGOL FIELD, 820198"
"423","kml_423","LIFELINE YISHUN RING MEDICAL CLINIC","760846","103.834641578841","1.41678634673088","YISHUN RING ROAD, 760846"
"424","kml_424","LIFELINK SN CLINIC & SURGERY","550153","103.872312298307","1.36995099695439","Serangoon North Avenue 1, 550153"
"425","kml_425","LILY AW PASIR RIS FAMILY CLINIC & SURGERY","510446","103.957726864829","1.37030619330386","PASIR RIS DR 6, 510446"
"426","kml_426","LIM CLINIC & SURGERY","461020","103.922885287164","1.32627271273425","CHAI CHEE ROAD, 461020"
"427","kml_427","LIM CLINIC & SURGERY","310109","103.846202461177","1.34123727109327","TOA PAYOH LOR 1, 310109"
"428","kml_428","LIM COUNTRY CLINIC","530208","103.886636110951","1.35869679921108","HOUGANG ST 21, 530208"
"429","kml_429","LIN & SONS CLINIC & SURGERY PTE LTD","680018","103.754071399254","1.37829768774576","TECK WHYE LANE, 680018"
"430","kml_430","LIVEWELL MEDICAL FAMILY CLINIC","329984","103.846554377717","1.3269450448725","AH HOOD ROAD, 329984"
"431","kml_431","LO & LEE CLINIC & SURGERY","530134","103.886509353222","1.35046468301438","LORONG AH SOO, 530134"
"432","kml_432","LOH CLINIC","380045","103.878442674599","1.31733721507169","SIMS DR, 380045"
"433","kml_433","LOI+WONG CLINIC & SURGERY","640492","103.725180466271","1.34994543580238","JURONG WEST ST 41, 640492"
"434","kml_434","LONDON (MH) CLINIC & SURGERY","530104","103.890318475998","1.35478438650586","HOUGANG AVE 1, 530104"
"435","kml_435","LOW & LEE CLINIC & SURGERY","460055","103.919015572902","1.32684846987483","CHAI CHEE DR, 460055"
"436","kml_436","LOW MEDICAL CLINIC","330067","103.869336175072","1.3213944644766","KALLANG BAHRU, 330067"
"437","kml_437","LUM CLINIC & SURGERY","090109","103.825310761058","1.27392939913176","BUKIT PURMEI RD, 090109"
"438","kml_438","LUSUMU Family Clinic","460530","103.927020293721","1.33371332045971","Bedok North St 3, 460530"
"439","kml_439","Lakeside Family Medicine Clinic","641518","103.71885762802","1.34513828527898","JURONG WEST STREET 52, 641518"
"440","kml_440","Lee Respiratory and Sleep Clinic","574623","103.837601167324","1.34182282585918","THOMSON ROAD, 574623"
"441","kml_441","Lian Clinic","730018","103.777861242043","1.44341700675837","Marsiling Lane, 730018"
"442","kml_442","Lifescan Medical Centre","238859","103.835857545111","1.30387230856356","ORCHARD ROAD, 238859"
"443","kml_443","Lily Neo Clinic Pte Ltd","329565","103.843252763122","1.32047597480701","IRRAWADDY ROAD, 329565"
"444","kml_444","Lim Clinic","560446","103.855357145899","1.36776095160051","ANG MO KIO AVE10, 560446"
"445","kml_445","Hua Mei Clinic","168730","103.828093503377","1.28629937149605","TIONG BAHRU ROAD, 168730"
"446","kml_446","I-HEALTH MEDICAL CLINIC","330030","103.864049815076","1.31930336749337","BENDEMEER ROAD, 330030"
"447","kml_447","ICON MEDICAL CLINIC","640517","103.71972430603","1.34584959191131","JURONG WEST ST 52, 640517"
"448","kml_448","IDOC CLINIC (HONG KAH) PTE LTD","640502","103.718334683532","1.3505012764805","JURONG WEST AVENUE 1, 640502"
"449","kml_449","INTEMEDICAL 24 HOUR CLINIC","560525","103.853976743936","1.37262666866782","ANG MO KIO AVENUE 10, 560525"
"450","kml_450","ISLAND FAMILY CLINIC (ANCHORVALE)","540338","103.889653919266","1.39922857033118","ANCHORVALE CRESCENT, 540338"
"451","kml_451","ISLAND FAMILY CLINIC (FERNVALE)","791473","103.881232764558","1.39785974899126","FERNVALE STREET, 791473"
"452","kml_452","ISLAND FAMILY CLINIC (KEAT HONG)","680803","103.742759621795","1.37415533414763","KEAT HONG CLOSE, 680803"
"453","kml_453","Integrated Wellness Clinic","307470","103.844782386419","1.32003005040623","SINARAN DRIVE, 307470"
"454","kml_454","Island Family Clinic & Endoscopy Centre","540338","103.889653919266","1.39922857033118","ANCHORVALE CRESCENT, 540338"
"455","kml_455","Island Family Clinic (Bedok)","470763","103.93483060668","1.33607209518397","BEDOK RESERVOIR VIEW, 470763"
"456","kml_456","Island Family Clinic (Bukit Batok)","650447","103.739809933345","1.35269613886399","BUKIT BATOK WEST AVENUE 9, 650447"
"457","kml_457","Island Family Clinic (Sengkang)","540279","103.893038290272","1.38621835450901","SENGKANG EAST AVENUE, 540279"
"458","kml_458","Island Medical Clinic","307987","103.842154838462","1.3195180026839","Newton Road, 307987"
"459","kml_459","JAPAN CLINIC AND SURGERY","200802","103.860269172947","1.30764582352943","FRENCH RD, 200802"
"460","kml_460","JIREH FAMILY CLINIC","730883","103.790548015767","1.44275333234585","WOODLANDS ST 82, 730883"
"461","kml_461","JJ CLINIC & SURGERY","560107","103.837381409799","1.37138400101395","ANG MO KIO AVENUE 4, 560107"
"462","kml_462","JO-LIN FAMILY CLINIC & SURGERY","680533","103.743099573448","1.39207388757417","CHOA CHU KANG ST 51, 680533"
"463","kml_463","JOY CLINIC AND SURGERY","760844","103.835446503405","1.41562517359593","YISHUN ST 81, 760844"
"464","kml_464","JOY FAMILY CLINIC","470703","103.91989305506","1.33716507465033","BEDOK RESERVOIR ROAD, 470703"
"465","kml_465","JUBILEE FAMILY PHYSICIANS","510258","103.964632224965","1.36707357511654","PASIR RIS ST 21, 510258"
"466","kml_466","JURONG EAST CLINIC","600114","103.734609974421","1.33921386441237","JURONG EAST ST 13, 600114"
"467","kml_467","JW Corporation Clinic Pte Ltd","640507","103.71842993374","1.34902708947199","Jurong West Street 52, 640507"
"468","kml_468","Jade Medical Clinic Pte Ltd","059818","103.84679624319","1.28895619965092","EU TONG SEN STREET, 059818"
"469","kml_469","Jane & Lee Sembawang Family Clinic","750483","103.815580869089","1.45603699743209","Admiralty Link, 750483"
"470","kml_470","Jireh Heart centre","329563","103.844212383776","1.32214005414322","IRRAWADDY ROAD, 329563"
"471","kml_471","Joash Family Clinic & Surgery","534767","103.888536901518","1.36298113879038","UPPER SERANGOON ROAD, 534767"
"472","kml_472","JoyHealth Medical Clinic & Surgery","520825","103.932787707033","1.34943750949191","Tampines Street 81, 520825"
"473","kml_473","K L TAY CLINIC & SURGERY","470632","103.914145075391","1.3320509461928","BEDOK RESERVOIR RD, 470632"
"474","kml_474","K N CHIN & ASSOCIATES PTE LTD","048621","103.852130314179","1.28385576222736","RAFFLES PLACE, 048621"
"475","kml_475","K N CHIN & ASSOCIATES PTE LTD Medical Practice","038983","103.859014406987","1.29593189474123","TEMASEK BOULEVARD, 038983"
"476","kml_476","K. B. TAN CLINIC & LASER SURGERY","510625","103.941978174961","1.37860239755804","ELIAS RD, 510625"
"477","kml_477","K2 MEDICAL CLINIC","520248","103.953541142784","1.34359376286677","SIMEI STREET 3, 520248"
"478","kml_478","KALLANG BAHRU FAMILY CLINIC PTE. LTD.","330066","103.869914603946","1.32066445659415","KALLANG BAHRU, 330066"
"479","kml_479","KANG AN CLINIC PTE LTD","650644","103.751790332685","1.34866680951042","BT BATOK CENTRAL, 650644"
"480","kml_480","KANG CLINIC","560532","103.854594160953","1.37380851529933","ANG MO KIO AVENUE 10, 560532"
"481","kml_481","KAO & TAN FAMILY MEDICAL CENTRE & SURGERY PTE LTD","164018","103.826785447839","1.28569742860668","JALAN MEMBINA, 164018"
"482","kml_482","KARRI FAMILY CLINIC","521866","103.934477898456","1.35536454222897","TAMPINES ST 83, 521866"
"483","kml_483","KCS Medical Centre Pte Ltd","460515","103.92996022996","1.33186656501132","Bedok North Ave 2, 460515"
"484","kml_484","KEAT HONG FAMILY MEDICINE CLINIC","689687","103.74494935896","1.3840958723943","CHOA CHU KANG LOOP, 689687"
"485","kml_485","KENSINGTON FAMILY CLINIC","557265","103.866111068633","1.36526817884598","KENSINGTON PARK ROAD, 557265"
"486","kml_486","KEPPEL MEDICAL GROUP","090009","103.819408460582","1.27740785896679","TELOK BLANGAH CRESCENT, 090009"
"487","kml_487","KHO CLINIC","460537","103.924236461317","1.33177300798251","BEDOK NORTH ST 3, 460537"
"488","kml_488","KHOO CLINIC & SURGERY","534737","103.887787767312","1.36228493590194","UPPER SERANGOON RD, 534737"
"489","kml_489","KILLINEY MEDICAL CLINIC","239522","103.839550953076","1.2989203432892","KILLINEY ROAD, 239522"
"490","kml_490","KIM TIAN CLINIC","160071","103.83250362737","1.28424655163417","SENG POH ROAD, 160071"
"491","kml_491","KING GEORGE'S MEDICAL CLINIC PTE LTD","200803","103.860912780811","1.30836526388985","KING GEORGE'S AVE, 200803"
"492","kml_492","KL NG MEDICAL CLINIC PTE LTD","150001","103.808242400061","1.28645354013154","JALAN BUKIT MERAH, 150001"
"493","kml_493","KO FAMILY CLINIC","380018","103.872301458327","1.31480351435198","UPPER BOON KENG ROAD, 380018"
"494","kml_494","KOH CLINIC & SURGERY","650166","103.742824825687","1.34715255026952","BUKIT BATOK WEST AVENUE 8, 650166"
"495","kml_495","KOH'S T & T CLINIC AND SURGERY PTE. LTD.","550237","103.870134574381","1.35381198304475","SERANGOON AVE 3, 550237"
"496","kml_496","KONG KIAN CLINIC","534869","103.885032593446","1.34010827019145","UPPER PAYA LEBAR ROAD, 534869"
"497","kml_497","Kai Clinic","428920","103.907133515337","1.30763657069386","EAST COAST ROAD, 428920"
"498","kml_498","Kai Medical Clinic","529284","103.960042188158","1.35436493798362","Tampines Street 32, 529284"
"499","kml_499","Katong Family Clinic Pte Ltd","437050","103.895551267298","1.30780276675294","TANJONG KATONG ROAD, 437050"
"500","kml_500","Kelinik Maju","400414","103.89822067311","1.31811559243751","Eunos Road 5, 400414"
"501","kml_501","Kenneth Loo Family Clinic","570152","103.854641447659","1.34565720338064","Bishan St 11, 570152"
"502","kml_502","Kenneth Tan Medical Clinic","820658","103.919352747597","1.39990420685096","PUNGGOL EAST, 820658"
"503","kml_503","Ki Medical Clinic","560416","103.855103690664","1.36454170930926","ANG MO KIO AVENUE 10, 560416"
"504","kml_504","Kin Mun Clinic","310066","103.851778402295","1.33501332560942","LORONG 4 TOA PAYOH, 310066"
"505","kml_505","L & H POLYCLINIC AND SURGERY","150059","103.814352117212","1.28879800624276","LENGKOK BAHRU, 150059"
"506","kml_506","L & L FAMILY MEDICINE CLINIC","575585","103.83640721143","1.35286373397832","SIN MING ROAD, 575585"
"507","kml_507","L'ving Vine Medical & Wellness Clinic","127371","103.766131294904","1.30369748988215","WEST COAST ROAD, 127371"
"508","kml_508","LAI MEDICAL CLINIC PTE LTD","650213","103.752496875132","1.34681845431119","BT BATOK ST 21, 650213"
"509","kml_509","LAN MEDICAL CLINIC & SURGERY","120308","103.766910446786","1.32105184993965","CLEMENTI AVE 4, 120308"
"510","kml_510","LAVENDER MEDICAL CLINIC & SURGERY PTE LTD","200803","103.860912780811","1.30836526388985","KING GEORGE'S AVENUE, 200803"
"511","kml_511","LC Clinic Medical Surgery Aesthetics","120446","103.764927758834","1.31251305739568","CLEMENTI AVENUE 3, 120446"
"512","kml_512","LEE & KOH FAMILY CLINIC","650359","103.751230683361","1.36134370364268","BUKIT BATOK ST 31, 650359"
"513","kml_513","LEE & TAN FAMILY CLINIC AND SURGERY","370072","103.887943886651","1.32454761116775","CIRCUIT RD, 370072"
"514","kml_514","LEE CLINIC","427678","103.904770224664","1.30659584489558","JOO CHIAT ROAD, 427678"
"515","kml_515","LEE CLINIC","460123","103.937343348132","1.32919868633173","BEDOK NORTH ST 2, 460123"
"516","kml_516","LEE CLINIC AND SURGERY","560505","103.850224901617","1.37485973000549","ANG MO KIO AVE 8, 560505"
"517","kml_517","LEE FAMILY CLINIC PTE. LTD.","640762","103.697732090659","1.34874357156987","JURONG WEST STREET 75, 640762"
"518","kml_518","LEONG CLINIC","152063","103.815318433238","1.28907506818611","LENGKOK BAHRU, 152063"
"519","kml_519","LER CLINIC & SURGERY","520835","103.933863132113","1.351138337645","TAMPINES ST 83, 520835"
"520","kml_520","LIANG CLINIC","455871","103.923185592863","1.31260423076805","SIGLAP ROAD, 455871"
"521","kml_521","LIEW CLINIC & SURGERY","151116","103.821532226324","1.28513427063832","BT MERAH VIEW, 151116"
"522","kml_522","LIFE FAMILY CLINIC","560713","103.846516327213","1.37145809323897","ANG MO KIO AVE 6, 560713"
"523","kml_523","LIFE FAMILY CLINIC","689810","103.74435225035","1.38533510950362","CHOA CHU KANG AVENUE 4, 689810"
"524","kml_524","LIFE-LINK CLINIC & SURGERY","510446","103.957726864829","1.37030619330386","PASIR RIS DR 6, 510446"
"525","kml_525","LIFECARE FAMILY CLINIC","671524","103.766228468168","1.38540569301034","JELAPANG ROAD, 671524"
"526","kml_526","LIFECARE FAMILY CLINIC & SURGERY","760102","103.828762985206","1.43061830395979","YISHUN AVE 5, 760102"
"527","kml_527","LIFECARE FAMILY CLINIC & SURGERY","530106","103.890680792157","1.35370297114613","HOUGANG AVE 1, 530106"
"528","kml_528","LIFECARE MEDICAL CENTRE","370036","103.886930797614","1.32902607935956","CIRCUIT ROAD, 370036"
"529","kml_529","HEALTHLINK MEDICAL CLINIC & SURGERY","360005","103.879898474189","1.33372866023576","UPPER ALJUNIED LANE, 360005"
"530","kml_530","HEALTHMARK CLINIC (PASIR RIS)","510735","103.936574613556","1.37966812078368","PASIR RIS STREET 72, 510735"
"531","kml_531","HEALTHPLUS CLINIC & SURGERY","470631","103.914941831149","1.33295923548327","BEDOK RESERVOIR ROAD, 470631"
"532","kml_532","HEALTHPLUS FAMILY CLINIC & SURGERY","101078","103.808980553653","1.27338751529297","TELOK BLANGAH ST 32, 101078"
"533","kml_533","HEALTHPOINT FAMILY CLINIC & SURGERY PTE LTD","142048","103.797626151203","1.30078900913879","TANGLIN HALT RD, 142048"
"534","kml_534","HEALTHSPRINGS MEDICAL ASSOCIATES","238881","103.830722581301","1.30508722668002","ORCHARD RD, 238881"
"535","kml_535","HEALTHWAY MEDICAL","760417","103.846329063086","1.4243850677914","YISHUN AVE 11, 760417"
"536","kml_536","HEALTHWAY MEDICAL","410110","103.910853622903","1.32365345260201","LENGKONG TIGA, 410110"
"537","kml_537","HEALTHWAY MEDICAL","560330","103.851030689601","1.36243186375124","ANG MO KIO AVE 1, 560330"
"538","kml_538","HEALTHWAY MEDICAL","750406","103.816977584507","1.45292980559221","SEMBAWANG DR, 750406"
"539","kml_539","HEALTHWAY MEDICAL","608532","103.742766383664","1.33415754643914","Gateway Drive, 608532"
"540","kml_540","HEALTHWAY MEDICAL","760748","103.833450479218","1.42751898225106","YISHUN STREET 72, 760748"
"541","kml_541","HEALTHWAY MEDICAL CLINIC","680534","103.743190998217","1.39224240557078","CHOA CHU KANG ST 51, 680534"
"542","kml_542","HEALTHWERKZ MEDICAL CENTRE @ SEMB MRT","759775","103.820139486431","1.44902668521597","CANBERRA ROAD, 759775"
"543","kml_543","HEALTHWISE MEDICAL CLINIC & SURGERY","390041","103.884763845833","1.30782736795111","JALAN TIGA, 390041"
"544","kml_544","HK FAMILY CLINIC & SURGERY PTE LTD","560410","103.854644986918","1.36271541943285","ANG MO KIO AVE 10, 560410"
"545","kml_545","HL CLINIC PTE LTD","090009","103.819408460582","1.27740785896679","TELOK BLANGAH CRESCENT, 090009"
"546","kml_546","HL FAMILY CLINIC & SURGERY PTE LTD","160111","103.826185854452","1.28032113582023","JALAN BUKIT MERAH, 160111"
"547","kml_547","HL FAMILY CLINIC & SURGERY(BEDOK) PTE LTD","460089","103.938051284815","1.3323346834519","BEDOK NORTH STREET 4, 460089"
"548","kml_548","HO MEDICAL CENTRE PTE LTD","120352","103.771350557955","1.31427860262492","CLEMENTI AVENUE 2, 120352"
"549","kml_549","HO MEDICAL CLINIC","058357","103.843980123077","1.28577009942741","UPPER CROSS ST, 058357"
"550","kml_550","HO TONG CLINIC","370035","103.886010316195","1.32915899651205","CIRCUIT RD, 370035"
"551","kml_551","HONG ASSOCIATES CLINIC","160111","103.826185854452","1.28032113582023","JLN BUKIT MERAH, 160111"
"552","kml_552","HONG FAMILY CLINIC","520282","103.952436775108","1.34775409914604","TAMPINES ST 22, 520282"
"553","kml_553","HONG'S CLINIC PEOPLE'S PARK CENTRE","058357","103.843980123077","1.28577009942741","UPPER CROSS STREET, 058357"
"554","kml_554","HOPE FAMILY CLINIC AND SURGERY","730883","103.790548015767","1.44275333234585","WOODLANDS ST 82, 730883"
"555","kml_555","HOUGANG FAMILY MEDICINE CLINIC","538776","103.882931930103","1.3753225375634","HOUGANG AVENUE 9, 538776"
"556","kml_556","PRINCETON FAMILY CLINIC PTE LTD.","670445","103.77076830515","1.38358044593591","FAJAR RD, 670445"
"557","kml_557","PRO-LIFE MEDICAL ASSOCIATES","680253","103.744393648371","1.37736607411235","CHOA CHU KANG AVE 1, 680253"
"558","kml_558","PROCROSS MEDICAL CENTRE","530449","103.895153601889","1.37878098225427","HOUGANG AVENUE 10, 530449"
"559","kml_559","PROHEALTH 24-HOUR MEDICAL CLINIC","671259","103.773310086642","1.37704293097595","BUKIT PANJANG RING RD, 671259"
"560","kml_560","PROHEALTH MEDICAL GROUP @ BUANGKOK PTE LTD","544275","103.893713485412","1.38290495770245","COMPASSVALE LINK, 544275"
"561","kml_561","PROHEALTH MEDICAL GROUP @LRT FERNVALE PTE LTD","790437","103.876330395063","1.39255040576997","FERNVALE ROAD, 790437"
"562","kml_562","PROVIDENCE CLINIC @ BALESTIER","329802","103.850395374008","1.32572472592378","BALESTIER ROAD, 329802"
"563","kml_563","PSALMS FAMILY CLINIC","760293","103.837605236392","1.43611425443645","YISHUN ST 22, 760293"
"564","kml_564","PUBLIC MEDICAL CLINIC & SURGERY","760664","103.841074642965","1.4201998655916","YISHUN AVE 4, 760664"
"565","kml_565","PULSE CLINIC PTE LTD","160038","103.827290023429","1.28855393147757","BEO CRESCENT, 160038"
"566","kml_566","PUNGGOL FAMILY CLINIC PTE. LTD.","820322","103.897501361321","1.41124703487775","SUMANG WALK, 820322"
"567","kml_567","Pacific Medical Clinic","238859","103.835857545111","1.30387230856356","ORCHARD ROAD, 238859"
"568","kml_568","PanCare Medical Clinic","560133","103.842644163602","1.37113968579534","ANG MO KIO AVENUE 3, 560133"
"569","kml_569","PanHealth Family Clinic","822312","103.900614671741","1.41135309600349","SUMANG LINK, 822312"
"570","kml_570","Pariqua Clinic","330047","103.866812029635","1.32339741230277","Bendemeer Road, 330047"
"571","kml_571","Parklane Medical Centre","188307","103.849448611741","1.30064530182129","SELEGIE ROAD, 188307"
"572","kml_572","Parkway Shenton Medical Group","120451","103.765476756799","1.31248298515734","CLEMENTI AVENUE 3, 120451"
"573","kml_573","Parkway Shenton Medical Group","408600","103.894894916119","1.31899666916027","EUNOS ROAD 8, 408600"
"574","kml_574","Parkway Shenton Medical Group","530205","103.885167372761","1.35954177322502","HOUGANG STREET 21, 530205"
"575","kml_575","Parkway Shenton Medical Group","486028","103.96657136529","1.33483540517389","CHANGI BUSINESS PARK CRESCENT, 486028"
"576","kml_576","Parkway Shenton Medical Group","820681","103.913215100957","1.4027801572994","PUNGGOL DRIVE, 820681"
"577","kml_577","ParkwayHealth Primary Care Network","049317","103.85206894582","1.28361958417727","COLLYER QUAY, 049317"
"578","kml_578","Parsons Medical Clinic Pte Ltd","760779","103.833261316719","1.42214461370293","YISHUN AVENUE 2, 760779"
"579","kml_579","Peace Family Clinic (WL832)","730832","103.790761499043","1.43966937731987","WOODLANDS STREET 83, 730832"
"580","kml_580","Peak Medical Clinic & Surgery","522601","103.937510784032","1.36088277451527","TAMPINES AVENUE 9, 522601"
"581","kml_581","Phoenix Medical Group","807011","103.869135978399","1.387395393577","SELETAR ROAD, 807011"
"582","kml_582","Phoenix Medical Group (Hillview)","667979","103.764172920441","1.36267450798777","Hillview Rise, 667979"
"583","kml_583","New Town Clinic Pte Ltd","461059","103.940695612374","1.32405898637368","New Upper Changi Road, 461059"
"584","kml_584","Northeast Medical Group","529888","103.953377214636","1.34319707870222","SIMEI STREET 3, 529888"
"585","kml_585","Northeast Medical Group","529538","103.945144586726","1.35330167667677","TAMPINES CENTRAL 1, 529538"
"586","kml_586","Northeast Medical Group","659958","103.749566478137","1.34903331182218","BUKIT BATOK CENTRAL, 659958"
"587","kml_587","Northeast Medical Group","270025","103.786255228682","1.30814746868332","GHIM MOH LINK, 270025"
"588","kml_588","Norwood Medical Clinic","735785","103.805487571931","1.44680413878616","WOODLANDS RISE, 735785"
"589","kml_589","Novena Medical Center Family Clinic","307506","103.844160709873","1.3207051098625","SINARAN DRIVE, 307506"
"590","kml_590","NuHealth Medical Centre","677899","103.760139846504","1.38032239850194","WOODLANDS ROAD, 677899"
"591","kml_591","Nyam Family Clinic","469452","103.948582654929","1.33156190358539","BEDOK ROAD, 469452"
"592","kml_592","O2 Medical Clinic","514527","103.947922425172","1.36968625480057","PASIR RIS STREET 51, 514527"
"593","kml_593","OC MEDICAL RAFFLES PLACE","048616","103.851072545442","1.28434954581843","RAFFLES PLACE, 048616"
"594","kml_594","OEI & KHO CLINIC AND SURGERY","310018","103.856789628566","1.33575723636727","LORONG 7 TOA PAYOH, 310018"
"595","kml_595","OGL MEDICAL CENTERS","307506","103.844160709873","1.3207051098625","SINARAN DRIVE, 307506"
"596","kml_596","OGL MEDICAL JURONG EAST","600353","103.730588041072","1.34438071297667","JURONG EAST STREET 31, 600353"
"597","kml_597","OGL MEDICAL QUEENSTOWN","140158","103.802806668566","1.29274038368447","MEI LING STREET, 140158"
"598","kml_598","ONECARE CLINIC ALJUNIED MRT","388310","103.882964033687","1.31644118839199","LORONG 25 GEYLANG, 388310"
"599","kml_599","ONECARE CLINIC AMK CHENG SAN PTE LTD","560531","103.854382572738","1.37332712954829","ANG MO KIO AVENUE 10, 560531"
"600","kml_600","ONECARE CLINIC BEDOK MRT","467347","103.92995373635","1.32398184936043","NEW UPPER CHANGI ROAD, 467347"
"601","kml_601","ONECARE CLINIC CLEMENTI","120449","103.7648099668","1.31361567922805","CLEMENTI AVENUE 3, 120449"
"602","kml_602","ONECARE CLINIC FERNVALE","790417","103.879874611056","1.39158623013568","FERNVALE LINK, 790417"
"603","kml_603","ONECARE CLINIC HOUGANG AVE 8","530681","103.885679159796","1.37297840263115","HOUGANG AVENUE 8, 530681"
"604","kml_604","ONECARE CLINIC PUNGGOL PLAZA","820168","103.913047323352","1.39423719749383","PUNGGOL FIELD, 820168"
"605","kml_605","ONECARE CLINIC TAMPINES MRT","529538","103.945144586726","1.35330167667677","TAMPINES CENTRAL 1, 529538"
"606","kml_606","ONELIFE FAMILY CLINIC","680534","103.743190998217","1.39224240557078","CHOA CHU KANG ST 51, 680534"
"607","kml_607","ONG'S CLINIC","189649","103.852700214599","1.3022432705157","BENCOOLEN ST, 189649"
"608","kml_608","ORCHARD GROUP CLINIC","238882","103.829984821697","1.30550610766275","ORCHARD RD, 238882"
"609","kml_609","OUR FAMILY CLINIC & SURGERY PTE LTD","431008","103.883179671945","1.30263933997545","JLN BATU, 431008"
"610","kml_610","OUR FAMILY CLINIC + SURGERY","510221","103.961614666694","1.37019473507472","PASIR RIS ST 21, 510221"
"611","kml_611","Physicians Practice Family Medical Center","307591","103.843611442751","1.31719450971532","THOMSON ROAD, 307591"
"612","kml_612","Pidemco Medical Centre Pte Ltd","760156","103.83356775674","1.43188761931188","YISHUN ST 11, 760156"
"613","kml_613","Lim Clinic","419773","103.907117852416","1.31819877434977","CHANGI ROAD, 419773"
"614","kml_614","Little Cross Family Clinic Pte Ltd","520929","103.939613985216","1.34639172452995","Tampines St 91, 520929"
"615","kml_615","M LAM CLINIC","389649","103.890469845778","1.31497431972343","GEYLANG ROAD, 389649"
"616","kml_616","M Medical Clinic","210681","103.85527273394","1.31372067347715","RACE COURSE ROAD, 210681"
"617","kml_617","MACPHERSON MEDICAL CLINIC","370078","103.885220313162","1.32788057151947","CIRCUIT ROAD, 370078"
"618","kml_618","MANDARIN MEDICAL CENTRE","598586","103.773903901185","1.34056695989911","JLN JURONG KECHIL, 598586"
"619","kml_619","MANHATTAN MEDICAL CENTRE","169876","103.84081324769","1.28703443818283","CHIN SWEE ROAD, 169876"
"620","kml_620","MARINA MEDICAL CENTRE (TIONG BAHRU)","160078","103.831014548809","1.28332611342005","GUAN CHUAN ST, 160078"
"621","kml_621","MARINE PARADE CLINIC","440059","103.914721779196","1.30585966577796","MARINE TERRACE, 440059"
"622","kml_622","MARINE TERRACE FAMILY CLINIC","440057","103.91548479998","1.30651257339373","MARINE TERRACE, 440057"
"623","kml_623","MAY MEDICAL CLINIC & SURGERY PTE LTD","270041","103.793463530856","1.30762004868338","HOLLAND DRIVE, 270041"
"624","kml_624","MAYFAIR MEDICAL CLINIC","730182","103.77602334337","1.43515895107837","WOODLANDS STREET 13, 730182"
"625","kml_625","MD INTERNATIONAL MEDICAL CENTRE","257720","103.819135632329","1.30847204130269","TAMAN SERASI, 257720"
"626","kml_626","MEDEN CLINIC & SURGERY","150059","103.814352117212","1.28879800624276","LENGKOK BAHRU, 150059"
"627","kml_627","MEDI CLINIC","163002","103.839614514953","1.28857969896702","JALAN KUKOH, 163002"
"628","kml_628","MEDICA CLINIC","530681","103.885679159796","1.37297840263115","HOUGANG AVE 8, 530681"
"629","kml_629","MEDICAL AESTHETICS","530681","103.885679159796","1.37297840263115","HOUGANG AVE 8, 530681"
"630","kml_630","MEDICAL AESTHETICS","120450","103.765476305113","1.31353886094619","CLEMENTI AVENUE 3, 120450"
"631","kml_631","MEDICAL AND DENTAL CENTRE @ COMMONWEALTH","141088","103.798021743481","1.30203802186463","TANGLIN HALT ROAD, 141088"
"632","kml_632","MEDICARE ASSOCIATES","520482","103.953000934042","1.36163049159223","TAMPINES AVE 9 ST 43, 520482"
"633","kml_633","MEDICO CLINIC & SURGERY","600249","103.739259690046","1.34256242271947","JURONG EAST STREET 24, 600249"
"634","kml_634","MEDIHEALTH BISHAN CLINIC & SURGERY","570121","103.851049225039","1.34718667802698","BISHAN ST 12, 570121"
"635","kml_635","MEDILIFE CLINIC & SURGERY","520474","103.952787602752","1.3598729915218","TAMPINES ST 43, 520474"
"636","kml_636","MEDILINE WEI MIN CLINIC","440081","103.907073248069","1.30264128620025","MARINE PARADE CENTRAL, 440081"
"637","kml_637","MEDINA MEDICAL CENTRE","520479","103.953567370888","1.36143356274786","TAMPINES STREET 44, 520479"
"638","kml_638","MEDIPOINT MEDICAL CENTRE (PONGGOL BRANCH)","530401","103.896994161671","1.3748433946064","HOUGANG AVE 10, 530401"
"639","kml_639","MEDIPOINT MEDICAL CENTRE (WOODLANDS BRANCH)","730548","103.793927429127","1.43089714599658","WOODLANDS DR 44, 730548"
"640","kml_640","MEDIVENE CLINIC & SURGERY","540330","103.889246755478","1.39684979899238","ANCHORVALE STREET, 540330"
"641","kml_641","MEDLIFE CLINIC & SURGERY","530684","103.886898456404","1.37395840472847","HOUGANG AVENUE 8, 530684"
"642","kml_642","MEENARA CLINIC","560422","103.851873942669","1.36799988803163","ANG MO KIO AVE 3, 560422"
"643","kml_643","MEI LING CLINIC","140158","103.802806668566","1.29274038368447","MEI LING ST, 140158"
"644","kml_644","MEI LING CLINIC (TOA PAYOH)","310500","103.847092284339","1.33285542877339","LOR 6 TOA PAYOH, 310500"
"645","kml_645","MERIDIAN MEDICAL AND DENTAL CENTRE","530327","103.895987624634","1.36830683228958","HOUGANG AVE 5, 530327"
"646","kml_646","MHC FAMILY CLINIC (ANG MO KIO)","560452","103.856200835268","1.36889751154086","ANG MO KIO AVE 10, 560452"
"647","kml_647","MILFORD MEDICAL GROUP","550237","103.870134574381","1.35381198304475","SERANGOON AVE 3, 550237"
"648","kml_648","MILLENNIUM MEDICAL GROUP","730849","103.792065607546","1.44131059420711","WOODLANDS ST 82, 730849"
"649","kml_649","MILLENNIUM MEDICAL GROUP","680533","103.743099573448","1.39207388757417","CHOA CHU KANG ST 51, 680533"
"650","kml_650","MINMED CLINIC (HAIG ROAD)","438737","103.895731869996","1.3132165367769","HAIG RD, 438737"
"651","kml_651","MINMED CLINIC (PASIR RIS)","518457","103.949715695148","1.37244981704712","PASIR RIS CENTRAL STREET 3, 518457"
"652","kml_652","MINMED CLINIC (PUNGGOL)","828761","103.902105681174","1.40648462103214","PUNGGOL CENTRAL, 828761"
"653","kml_653","MINMED CLINIC (YISHUN)","768019","103.836177650724","1.42790289016825","NORTHPOINT DRIVE, 768019"
"654","kml_654","MINT MEDICAL CENTRE (FUNAN)","179105","103.849989789705","1.2913475971014","NORTH BRIDGE ROAD, 179105"
"655","kml_655","MISSION MEDICAL CLINIC","534649","103.879280959211","1.35450868285372","UPPER SERANGOON ROAD, 534649"
"656","kml_656","MOBILEDOCTOR CLINIC","048422","103.847469683651","1.2837457628788","CROSS STREET, 048422"
"657","kml_657","MUTUAL HEALTHCARE MEDICAL CLINIC","542319","103.890466406973","1.39139722628005","ANCHORVALE DR, 542319"
"658","kml_658","MUTUAL HEALTHCARE MEDICAL CLINIC","821106","103.908344134041","1.39660486039663","PUNGGOL FIELD, 821106"
"659","kml_659","MY DOCTOR'S PLACE PTE LTD","460218","103.934249434387","1.32749295502142","BEDOK NORTH STREET 1, 460218"
"660","kml_660","MY FAMILY CLINIC (ANCHORVALE)","541326","103.888000137553","1.39491417281225","ANCHORVALE ROAD, 541326"
"661","kml_661","MY FAMILY CLINIC (CHOA CHU KANG)","680475","103.739015486131","1.37789727696934","CHOA CHU KANG AVE 3, 680475"
"662","kml_662","MY FAMILY CLINIC (CLEMENTI 325) PTE LTD","120325","103.766817400699","1.31509668516835","CLEMENTI AVE 5, 120325"
"663","kml_663","MY FAMILY CLINIC (SEGAR)","670485","103.771312569595","1.38868132350767","SEGAR ROAD, 670485"
"664","kml_664","MY FAMILY CLINIC (ST GEORGE)","328023","103.863267718732","1.32241677134775","ST. GEORGE'S ROAD, 328023"
"665","kml_665","MY FAMILY CLINIC (WOODLANDS GLEN)","730573","103.7985076215","1.43109807249328","WOODLANDS DRIVE 16, 730573"
"666","kml_666","MY FAMILY CLINIC (WOODLANDS)","730768","103.798140993881","1.44562290748789","WOODLANDS AVE 6, 730768"
"667","kml_667","MYDOCTOR@ADMIRALTY PTE LTD","730693","103.80376495913","1.43808788035983","WOODLANDS AVENUE 6, 730693"
"668","kml_668","MYHEALTH MEDICAL CENTRE","120501","103.75886443455","1.31129566349864","WEST COAST DRIVE, 120501"
"669","kml_669","Make-Well Family Clinic & Surgery","310070","103.852333287775","1.33444874920961","LORONG 4 TOA PAYOH, 310070"
"670","kml_670","Mary Medical Clinic and Surgery","600252","103.738145286322","1.34302644245795","JURONG EAST STREET 24, 600252"
"671","kml_671","Mayfair Medical Clinic (Yishun Chong Pang)","760103","103.828892847597","1.43136934942161","YISHUN RING ROAD, 760103"
"672","kml_672","Medi Healthcare Clinic (Punggol)","820218","103.895387022161","1.40322712503317","SUMANG WALK, 820218"
"673","kml_673","Medic Surgical & Laser Clinic","082001","103.842433596845","1.27568702794453","TANJONG PAGAR PLAZA, 082001"
"674","kml_674","Medivale Medical Clinic","760236","103.83899894357","1.43416807953309","YISHUN RING ROAD, 760236"
"675","kml_675","Mediview Clinic and Surgery","310150","103.84451622696","1.33378519647731","Toa Payoh Lorong 1, 310150"
"676","kml_676","Meridian Medical Centre","100108","103.810292617921","1.28084469424139","Depot Road, 100108"
"677","kml_677","Minmed Clinic (Jurong East)","608549","103.743278742127","1.33329334481438","JURONG GATEWAY ROAD, 608549"
"678","kml_678","Minmed Clinic (Sengkang)","545078","103.895070543472","1.39205314124118","SENGKANG SQUARE, 545078"
"679","kml_679","Minmed Health Screeners","238859","103.835857545111","1.30387230856356","Orchard Road, 238859"
"680","kml_680","Mint Medical Centre","098633","103.819139250561","1.26477806953607","HARBOURFRONT PLACE, 098633"
"681","kml_681","Mission (Bukit Batok) Medical Clinic","651395","103.751896006132","1.36393821477867","Bukit Batok West Ave 5, 651395"
"682","kml_682","Mission (Hougang) Medical Clinic","530356","103.898813147316","1.37259314180223","HOUGANG AVE 7, 530356"
"683","kml_683","Mission Cross Family Clinic","760348","103.842930213631","1.42662488360089","YISHUN AVENUE 11, 760348"
"684","kml_684","Mount Alvernia Outreach Medical Clinic","159053","103.814818125298","1.28736604111919","LENGKOK BAHRU, 159053"
"685","kml_685","Mount Alvernia Outreach Medical Clinic","319264","103.856985734384","1.3400817316314","LORONG 8 TOA PAYOH, 319264"
"686","kml_686","Mutual Healthcare Medical Clinic","541205","103.896966679981","1.38603998431281","Compassvale Lane, 541205"
"687","kml_687","My Family Clinic (Angsana Breeze @ Yishun)","760507","103.83982778486","1.41517413108586","YISHUN AVENUE 4, 760507"
"688","kml_688","My Family Clinic (Clementi)","121420","103.768657660932","1.30979102118924","CLEMENTI AVENUE 1, 121420"
"689","kml_689","My Family Clinic (Hougang Central)","530804","103.894473676698","1.37115128104866","HOUGANG CENTRAL, 530804"
"690","kml_690","My Family Clinic (Pioneer)","640638","103.697174842354","1.34169239237791","Jurong West St 61, 640638"
"691","kml_691","My Family Clinic (Punggol Central)","820301","103.906138007036","1.40371939727893","PUNGGOL CENTRAL, 820301"
"692","kml_692","My Family Clinic (Rivervale)","545082","103.904483668484","1.39250411008759","Rivervale Crescent, 545082"
"693","kml_693","My Family Clinic (Senja)","670628","103.760410617966","1.38512867357186","Senja Road, 670628"
"694","kml_694","My Family Clinic (Tanglin Halt)","140462","103.798227586733","1.29996199426431","COMMONWEALTH DRIVE, 140462"
"695","kml_695","My Family Clinic? (Toa Payoh Central)","314079","103.849165515059","1.33464084342805","TOA PAYOH CENTRAL, 314079"
"696","kml_696","My doctor @ Lakeside","649845","103.720949087875","1.34425911463583","BOON LAY WAY, 649845"
"697","kml_697","N B THAM CLINIC PTE LTD","327718","103.853367215257","1.3224904462066","WHAMPOA DRIVE, 327718"
"698","kml_698","NANYANG CENTRE CLINIC","640959","103.690721731343","1.34148123560942","JURONG WEST ST 92, 640959"
"699","kml_699","NATIONAL CLINIC","120352","103.771350557955","1.31427860262492","CLEMENTI AVE 2, 120352"
"700","kml_700","NCS Medical Clinic","569141","103.844038054823","1.38789128850575","ANG MO KIO STREET 62, BLK A, 569141"
"701","kml_701","NEECARE MEDICAL CENTRE","650371","103.75069463099","1.35925940880518","BUKIT BATOK STREET 31, 650371"
"702","kml_702","NEIGHBOURHOOD MEDICAL CLINIC","530683","103.886367847372","1.37331270083797","HOUGANG AVE 8, 530683"
"703","kml_703","NEO CLINIC  & SURGERY","670257","103.773212348102","1.37850873569471","BANGKIT ROAD, 670257"
"704","kml_704","NEO MEDICAL CENTRE","350120","103.863387980485","1.33545353276581","POTONG PASIR AVE 1, 350120"
"705","kml_705","NEOH & ONG MEDICAL CLINIC","401002","103.903193510186","1.32020110490051","EUNOS CRESCENT, 401002"
"706","kml_706","NEW HEALTH FAMILY CLINIC Pte Ltd","100108","103.810292617921","1.28084469424139","Depot Road, 100108"
"707","kml_707","NEW TOWN CLINIC","380011","103.870914031071","1.31423937057055","UPPER BOON KENG ROAD, 380011"
"708","kml_708","NEWCASTLE CLINIC","238881","103.830722581301","1.30508722668002","ORCHARD ROAD, 238881"
"709","kml_709","NEWEST MEDICAL AND LASER CLINIC PTE LTD","128020","103.757451263607","1.31641321897956","WEST COAST DRIVE, 128020"
"710","kml_710","NEWLIFE FAMILY CLINIC & SURGERY","600061","103.738292803759","1.32213636288697","TEBAN GARDENS ROAD, 600061"
"711","kml_711","NORTHEAST MEDICAL GROUP","460531","103.926153139378","1.33312991887095","BEDOK NORTH ST 3, 460531"
"712","kml_712","NORTHEAST MEDICAL GROUP","545062","103.895508170861","1.39174613260021","Sengkang Square, 545062"
"713","kml_713","NORTHEAST MEDICAL GROUP","048980","103.850862398592","1.28394905743259","MALACCA STREET, 048980"
"714","kml_714","NORTHEAST MEDICAL GROUP","390039","103.885092299821","1.30782060284175","JALAN TIGA, 390039"
"715","kml_715","NORTHEAST MEDICAL GROUP","569811","103.849558091899","1.36993284966753","ANG MO KIO AVENUE 8, 569811"
"716","kml_716","NORTHLAND FAMILY CLINIC & SURGERY","760640","103.838806520716","1.42106180506188","YISHUN ST 61, 760640"
"717","kml_717","NOVO VITA CLINIC AND SURGERY","160131","103.828178444729","1.28018941897319","JLN BUKIT MERAH, 160131"
"718","kml_718","NTUC Health Family Medicine Clinic","550264","103.872103136189","1.35227519863723","SERANGOON CENTRAL, 550264"
"719","kml_719","NUFFIELD MEDICAL SIGLAP","459108","103.92444984956","1.31205928217535","EAST COAST ROAD, 459108"
"720","kml_720","NUTRAMED CLINIC","239693","103.837359153263","1.30139878843175","GRANGE ROAD, 239693"
"721","kml_721","Neptune Healthcare Medical & Surgery","520328","103.958287519159","1.3531661754088","TAMPINES STREET 32, 520328"
"722","kml_722","Healthway Medical","510625","103.941978174961","1.37860239755804","ELIAS RD, 510625"
"723","kml_723","Healthway Medical","322101","103.861087462865","1.31942539044681","TOWNER ROAD, 322101"
"724","kml_724","One Medical Clinic","640728","103.697698311825","1.34609844042057","JURONG WEST AVENUE 5, 640728"
"725","kml_725","OneCare Clinic Boon Lay","640221","103.712429315355","1.3463481965558","BOON LAY PLACE, 640221"
"726","kml_726","OneCare Clinic Canberra","750105","103.8324062093","1.44885888645002","CANBERRA STREET, 750105"
"727","kml_727","OneCare Clinic Woodlands","738623","103.779881892363","1.43354318103334","Woodlands Street 12, 738623"
"728","kml_728","OneDoctors Family Clinic","560710","103.848186835446","1.3710458307609","ANG MO KIO AVENUE 8, 560710"
"729","kml_729","OneDoctors Family Clinic","278982","103.795582039212","1.3113303854717","HOLLAND AVENUE, 278982"
"730","kml_730","OneDoctors Family Clinic","760846","103.834641578841","1.41678634673088","YISHUN RING ROAD, 760846"
"731","kml_731","OneDoctors Family Clinic","828761","103.902105681174","1.40648462103214","PUNGGOL CENTRAL, 828761"
"732","kml_732","OneDoctors Medical Centre","556083","103.872296143433","1.35076935223904","SERANGOON CENTRAL, 556083"
"733","kml_733","Onecare Clinic Bukit Batok","650630","103.749914947577","1.35008771762775","BUKIT BATOK CENTRAL, 650630"
"734","kml_734","Onecare Clinic Bukit Gombak MRT","659083","103.751883836082","1.35871216216159","BUKIT BATOK WEST AVENUE 5, 659083"
"735","kml_735","Onecare Clinic Bukit Panjang","670547","103.769575386975","1.3882402170722","SEGAR ROAD, 670547"
"736","kml_736","Onecare Clinic Choa Chu Kang","680810","103.746160941802","1.3740546177535","CHOA CHU KANG AVENUE 7, 680810"
"737","kml_737","Onecare Clinic Hougang","530104","103.890318475998","1.35478438650586","HOUGANG AVENUE 1, 530104"
"738","kml_738","Onecare Clinic Loyang","510258","103.964632224965","1.36707357511654","PASIR RIS STREET 21, 510258"
"739","kml_739","Onecare Clinic Marine Parade","440081","103.907073248069","1.30264128620025","MARINE PARADE CENTRAL, 440081"
"740","kml_740","Onecare Clinic Tampines","520827","103.933719246548","1.34972149524439","TAMPINES STREET 81, 520827"
"741","kml_741","Onecare Clinic Tiong Bahru","161011","103.828789865619","1.2863657812581","BOON TIONG ROAD, 161011"
"742","kml_742","Onecare Clinic Yishun","760431","103.84758940791","1.42026334154091","YISHUN AVENUE 1, 760431"
"743","kml_743","Oneness Medical","270031","103.797080329535","1.30697526841647","HOLLAND CLOSE, 270031"
"744","kml_744","Ong Clinic & Surgery (Yishun)","760293","103.837605236392","1.43611425443645","YISHUN STREET 22, 760293"
"745","kml_745","Ong Clinic & Surgery Pte Ltd","650265","103.759862833379","1.35000840233326","Bukit Batok East Ave 4, 650265"
"746","kml_746","Ong Medical Clinic","563316","103.847677034523","1.36462540282437","Ang Mo Kio St 31, 563316"
"747","kml_747","P Tan Family Medicine Clinic","570503","103.848047514409","1.34903237568207","BISHAN STREET 11, 570503"
"748","kml_748","PACIFIC FAMILY CLINIC","154075","103.815711568942","1.28846476848129","REDHILL ROAD, 154075"
"749","kml_749","PACIFIC MEDICAL & DENTAL GROUP","760716","103.827449409203","1.42615726590364","YISHUN ST 71, 760716"
"750","kml_750","PAN ISLAND CLINIC & SURGERY","470632","103.914145075391","1.3320509461928","BEDOK RESERVOIR RD, 470632"
"751","kml_751","PANDAN CLINIC PTE LTD","600415","103.748258627183","1.3207654337316","PANDAN GARDENS, 600415"
"752","kml_752","PANHEALTH FAMILY CLINIC (HOUGANG)","532932","103.882234928016","1.37512666138591","HOUGANG AVENUE 9, 532932"
"753","kml_753","PARKWAY SHENTON MEDICAL GROUP","068882","103.849822465586","1.28093474477009","ROBINSON ROAD, 068882"
"754","kml_754","PARKWAY SHENTON MEDICAL GROUP","677743","103.764357180241","1.37992045165028","JELEBU ROAD, 677743"
"755","kml_755","PASIR RIS CLINIC & SURGERY PTE LTD","510442","103.957951722637","1.36893288683695","PASIR RIS DR 6, 510442"
"756","kml_756","PEACE FAMILY CLINIC","730371","103.786714412892","1.43228225786282","WOODLANDS AVE 1, 730371"
"757","kml_757","PHOENIX CLINIC & SURGERY","680150","103.756450878463","1.37820351167481","JALAN TECK WHYE, 680150"
"758","kml_758","PHOENIX MEDICAL GROUP ( CACTUS )","567708","103.850468725618","1.39127591986847","ANG MO KIO STREET 66, 567708"
"759","kml_759","PHOENIX MEDICAL GROUP (PAYA LEBAR)","409051","103.892580778371","1.3188148698027","PAYA LEBAR ROAD, 409051"
"760","kml_760","PHOON CLINIC AND SURGERY","470632","103.914145075391","1.3320509461928","BEDOK RESERVOIR RD, 470632"
"761","kml_761","PIER MEDICAL CENTRE","640725","103.697719623525","1.34545354926714","JURONG WEST AVE 5, 640725"
"762","kml_762","PINETREE MEDICAL CLINIC","460086","103.938989345549","1.33254084334528","BEDOK NORTH STREET 4, 460086"
"763","kml_763","PINNACLE FAMILY CLINIC (BUANGKOK SQUARE)","530991","103.881623070219","1.38433426584339","BUANGKOK LINK, 530991"
"764","kml_764","PINNACLE FAMILY CLINIC (COMPASSVALE)","543289","103.896797882092","1.39755434211922","COMPASSVALE CRESCENT, 543289"
"765","kml_765","PINNACLE FAMILY CLINIC (RIVER VALLEY)","238297","103.842399200559","1.29420531470349","RIVER VALLEY ROAD, 238297"
"766","kml_766","PINNACLE FAMILY CLINIC (SERANGOON NORTH)","550518","103.874103124264","1.37164118177384","SERANGOON NORTH AVENUE 4, 550518"
"767","kml_767","PINNACLE FAMILY CLINIC (WOODLANDS)","730573","103.7985076215","1.43109807249328","WOODLANDS DRIVE 16, 730573"
"768","kml_768","PIONEER MEDICARE","627606","103.697237932753","1.33378307228245","SOON LEE STREET, 627606"
"769","kml_769","PJ CLINIC","160036","103.827180352617","1.28830079134407","BEO CRESCENT, 160036"
"770","kml_770","PLATINUM MEDICAL CLINIC AND SURGERY PTE LTD","760513","103.844255308291","1.41600481783693","YISHUN STREET 51, 760513"
"771","kml_771","PLUSHEALTH MEDICAL CLINIC & SURGERY","320089","103.854988582289","1.32363913739046","WHAMPOA DRIVE, 320089"
"772","kml_772","POINT MEDICAL GROUP (TAMAN JURONG)","610399","103.720462024234","1.33484487386451","YUNG SHENG ROAD, 610399"
"773","kml_773","POW FAMILY CLINIC & SURGERY","530620","103.883968140739","1.3701440067348","HOUGANG AVE 8, 530620"
"774","kml_774","PRAISE FAMILY CLINIC","520717","103.935147321662","1.35881526999725","TAMPINES ST 72, 520717"
"775","kml_775","PREMIER CLINIC & SURGERY PTE LTD","560631","103.840735651129","1.3795572814979","ANG MO KIO AVE 4, 560631"
"776","kml_776","PRIME MEDICAL GROUP PTE LTD","238859","103.835857545111","1.30387230856356","ORCHARD ROAD, 238859"
"777","kml_777","RAFFLES EXECUTIVE MEDICAL CENTRE","188770","103.856827693726","1.30120424133144","NORTH BRIDGE ROAD, 188770"
"778","kml_778","RAFFLESMEDICAL","689812","103.745011766594","1.38497459642175","CHOA CHU KANG AVE 4, 689812"
"779","kml_779","RAFFLESMEDICAL","560722","103.847529279188","1.37224394014507","ANG MO KIO AVE 8, 560722"
"780","kml_780","RAFFLESMEDICAL","530809","103.893668163417","1.37119603325419","HOUGANG CENTRAL, 530809"
"781","kml_781","RAFFLESMEDICAL","120446","103.764927758834","1.31251305739568","CLEMENTI AVENUE 3, 120446"
"782","kml_782","RAFFLESMEDICAL","460203","103.929194613675","1.32574461340975","BEDOK NORTH STREET 1, 460203"
"783","kml_783","RAFFLESMEDICAL","188770","103.856827693726","1.30120424133144","NORTH BRIDGE ROAD, 188770"
"784","kml_784","RAFFLESMEDICAL","678278","103.76284278991","1.37843100797107","PETIR ROAD, 678278"
"785","kml_785","RC'S FAMILY CLINIC PTE LTD","673635","103.758433939114","1.38650187015926","SENJA ROAD, 673635"
"786","kml_786","RCMC RIVERVALE CRESCENT MEDICAL CENTRE","541182","103.908892267477","1.39045272949958","RIVERVALE CRESCENT, 541182"
"787","kml_787","REDWOOD @ TPY CLINIC AND SURGERY PTE. LTD.","310083","103.847991955582","1.335787912335","LORONG 2 TOA PAYOH, 310083"
"788","kml_788","REDWOOD CLINIC AND SURGERY PTE LTD","158792","103.816740972072","1.28963453428279","TIONG BAHRU ROAD, 158792"
"789","kml_789","REGIONAL PATIENTCARE MEDICAL GROUP PTE LTD (ADMIRALTY PLACE BRANCH)","730678","103.801293104547","1.43998366603242","WOODLANDS AVE 6, 730678"
"790","kml_790","REGIONAL PATIENTCARE MEDICAL GROUP PTE LTD (YISHUN CENTRAL BRANCH)","760932","103.837150418545","1.4263621765255","YISHUN CENTRAL 1, 760932"
"791","kml_791","ROCHOR CENTRE CLINIC","189649","103.852700214599","1.3022432705157","BENCOOLEN STREET, 189649"
"792","kml_792","ROCHOR MEDICAL CENTRE","200635","103.855218715931","1.30658850151817","VEERASAMY ROAD, 200635"
"793","kml_793","ROWELL CLINIC & SURGERY","200642","103.856495249842","1.3077805140901","ROWELL ROAD, 200642"
"794","kml_794","ROY'S FAMILY CLINIC & SURGERY","760846","103.834641578841","1.41678634673088","YISHUN RING ROAD, 760846"
"795","kml_795","ROYAL CARE MEDICAL FAMILY CLINIC CHOA CHU KANG","680818","103.748826771213","1.37802616205349","CHOA CHU KANG AVENUE 1, 680818"
"796","kml_796","ROYAL MEDICAL CENTRE","730111","103.782059433299","1.43794381737826","WOODLANDS ST 13, 730111"
"797","kml_797","RUBY MEDICAL CENTRE PTE LTD","520505","103.945616070638","1.35554848228485","TAMPINES CENTRAL 1, 520505"
"798","kml_798","Radiant Medical + Aesthetic Centre","530810","103.89336998978","1.37158744039625","HOUGANG CENTRAL, 530810"
"799","kml_799","RafflesMedical","738099","103.785981524566","1.43607006516889","Woodlands Square, 738099"
"800","kml_800","RafflesMedical","455871","103.923185592863","1.31260423076805","SIGLAP ROAD, 455871"
"801","kml_801","RafflesMedical","819642","103.990348823433","1.36170882122938","SINGAPORE CHANGI INTERNEATIONAL, 819642"
"802","kml_802","RafflesMedical","570283","103.844748631654","1.35891907140489","BISHAN STREET 22, 570283"
"803","kml_803","RafflesMedical","179103","103.8527683243","1.29376028146733","North Bridge Road, 179103"
"804","kml_804","OXFORD MEDICAL CENTRE","510735","103.936574613556","1.37966812078368","PASIR RIS ST 72, 510735"
"805","kml_805","Oasis Family Clinic","461056","103.941082588112","1.32499379325103","NEW UPPER CHANGI ROAD, 461056"
"806","kml_806","RafflesMedical","048623","103.852133221714","1.28469772047007","RAFFLES PLACE, 048623"
"807","kml_807","RafflesMedical","079904","103.845738587261","1.2745218067199","ANSON ROAD, 079904"
"808","kml_808","RafflesMedical","039594","103.85702695548","1.29157395675943","Raffles Boulevard, 039594"
"809","kml_809","RafflesMedical","310177","103.848854818027","1.33390034089973","Toa Payoh Central, 310177"
"810","kml_810","RafflesMedical","068912","103.847572724937","1.27763073254434","ROBINSON ROAD, 068912"
"811","kml_811","RafflesMedical","159953","103.805009964275","1.28861469011507","ALEXANDRA ROAD, 159953"
"812","kml_812","RafflesMedical","819663","103.98656220853","1.35662609392547","Airport Boulevard Departure Hall, 819663"
"813","kml_813","RafflesMedical","099253","103.820243324874","1.26396991217473","MARITIME SQUARE, 099253"
"814","kml_814","RafflesMedical","238874","103.834676124776","1.30242417185937","ORCHARD RD, 238874"
"815","kml_815","RafflesMedical","529536","103.945071748026","1.35425637955977","TAMPINES CENTRAL 1, 529536"
"816","kml_816","RafflesMedical","750355","103.818727592719","1.44954485606328","SEMBAWANG WAY, 750355"
"817","kml_817","RafflesMedical","276474","103.794773872292","1.33123001007666","SIXTH AVENUE, 276474"
"818","kml_818","RafflesMedical","486025","103.965668919257","1.33335127296395","CHANGI BUSINESS PARK CRESCENT, 486025"
"819","kml_819","RafflesMedical","819643","103.989066655162","1.35496948998212","AIRPORT BOULEVARD, 819643"
"820","kml_820","RafflesMedical","556083","103.872296143433","1.35076935223904","SERANGOON CENTRAL, 556083"
"821","kml_821","RafflesMedical","018960","103.851255907838","1.27894102286765","MARINA VIEW, 018960"
"822","kml_822","RafflesMedical","486038","103.962946072076","1.33408360486513","CHANGI BUSINESS PARK CENTRAL 1, 486038"
"823","kml_823","RafflesMedical","068898","103.849316412869","1.2801374698432","ROBINSON ROAD, 068898"
"824","kml_824","RafflesMedical","518457","103.949715695148","1.37244981704712","PASIR RIS CENTRAL STREET 3, 518457"
"825","kml_825","RafflesMedical","648886","103.706685012636","1.33945271688955","JURONG WEST CENTRAL 2, 648886"
"826","kml_826","RafflesMedical","819663","103.98656220853","1.35662609392547","AIRPORT BOULEVARD, 819663"
"827","kml_827","RafflesMedical","689578","103.746637430571","1.39706712804272","CHOA CHU KANG NORTH 6, 689578"
"828","kml_828","RafflesMedical","018982","103.854457595507","1.27912493803888","MARINA BOULEVARD, 018982"
"829","kml_829","RafflesMedical","528833","103.953024496638","1.34270619638735","SIMEI STREET 6, 528833"
"830","kml_830","RafflesMedical","228208","103.831970581405","1.30611334615777","SCOTTS ROAD, 228208"
"831","kml_831","RafflesMedical","545082","103.904483668484","1.39250411008759","RIVERVALE CRESCENT, 545082"
"832","kml_832","RafflesMedical","828761","103.902105681174","1.40648462103214","PUNGGOL CENTRAL, 828761"
"833","kml_833","RafflesMedical","819659","103.98481125361","1.34126241557138","AIRPORT BOULEVARD, 819659"
"834","kml_834","SUNBEAM MEDICAL CLINIC","542318","103.888915861518","1.39382852232708","ANCHORVALE LINK, 542318"
"835","kml_835","SUNBEAM MEDICAL CLINIC","673443","103.769732692211","1.38057053055556","FAJAR ROAD, 673443"
"836","kml_836","SUNNYVALE CLINIC & SURGERY","640498","103.724307319672","1.34833335721941","JURONG WEST ST 41, 640498"
"837","kml_837","Saint-Julien Clinic for Diabetes & Endocrinology","217562","103.853929522028","1.31247324146379","FARRER PARK STATION ROAD, 217562"
"838","kml_838","Sembawang Mart Medical Centre","750511","103.819619835472","1.45381060923032","CANBERRA ROAD, 750511"
"839","kml_839","Sengkang Family Clinic","544274","103.891156696939","1.38253437190713","COMPASSVALE BOW, 544274"
"840","kml_840","Senja Family Clinic","670609","103.762010135614","1.38285734133979","Bukit Panjang Ring Road, 670609"
"841","kml_841","Shenton Family Medical Clinic","322102","103.862002015014","1.32058609482407","TOWNER ROAD, 322102"
"842","kml_842","Shenton Medical Group","098633","103.819139250561","1.26477806953607","HarbourFront Place, 098633"
"843","kml_843","Shenton Medical Group","048583","103.851899818693","1.28118338740689","Raffles Quay, 048583"
"844","kml_844","Shenton Medical Group","510625","103.941978174961","1.37860239755804","ELIAS ROAD, 510625"
"845","kml_845","Shenton Medical Group","238867","103.836340953733","1.30206450544267","ORCHARD ROAD, 238867"
"846","kml_846","Shenton Medical Group","545061","103.893122570095","1.3828700200017","SENGKANG CENTRAL, 545061"
"847","kml_847","Shenton Medical Group","486015","103.963121893503","1.33587129987692","CHANGI BUSINESS PARK AVENUE 1, 486015"
"848","kml_848","Shenton Medical Group","189562","103.854463360255","1.2934030717761","BRAS BASAH ROAD, 189562"
"849","kml_849","Shenton Medical Group","738343","103.786066799339","1.43681962960776","WOODLANDS AVENUE 2, 738343"
"850","kml_850","Shenton Medical Group","550263","103.871939623607","1.35386322682384","SERANGOON CENTRAL DRIVE, 550263"
"851","kml_851","Shenton Medical Group","310126","103.845130852041","1.33781465664298","LORONG 1 TOA PAYOH, 310126"
"852","kml_852","Shenton Medical Group","768698","103.841268831273","1.41795288509924","YISHUN RING ROAD, 768698"
"853","kml_853","Shenton Medical Group","797653","103.876125506847","1.39147015412078","SENGKANG WEST AVENUE, 797653"
"854","kml_854","Shenton Wellness Centre","119963","103.801264139133","1.27398640019417","ALEXANDRA ROAD, 119963"
"855","kml_855","Shifa Clinic (Jurong)","640501","103.719222201398","1.34981225393483","Jurong West Street 51, 640501"
"856","kml_856","Shine Family Clinic","640463","103.723241115985","1.35057698682517","JURONG WEST STREET 41, 640463"
"857","kml_857","Sia & Yeo Hougang Clinic Pte Ltd","530573","103.88755572228","1.37755651165883","Hougang Street 51, 530573"
"858","kml_858","Silver Cross Medical","640502","103.718334683532","1.3505012764805","Jurong West Ave 1, 640502"
"859","kml_859","Spring Medical Clinic (Old Airport Road)","390039","103.885092299821","1.30782060284175","Jalan Tiga, 390039"
"860","kml_860","St Georges Clinic And Surgery Pte Ltd","320003","103.861107276896","1.32258735163112","ST GEORGE'S RD, 320003"
"861","kml_861","RafflesMedical","278997","103.796107173265","1.31056351487197","Holland Avenue, 278997"
"862","kml_862","RafflesMedical","545078","103.895070543472","1.39205314124118","SENGKANG SQUARE, 545078"
"863","kml_863","RafflesMedical","139654","103.77516050407","1.30302017269004","DOVER ROAD, 139654"
"864","kml_864","RafflesMedical","528704","103.93129218129","1.35809100033282","TAMPINES STREET 73, 528704"
"865","kml_865","RafflesMedical","769098","103.835776491296","1.4296984860254","YISHUN AVENUE 2, 769098"
"866","kml_866","RafflesMedical","819665","103.983635708359","1.33814521631176","AIRPORT BOULEVARD, 819665"
"867","kml_867","Red Dot Medical","821660","103.916519598746","1.40262197324413","EDGEDALE PLAINS, 821660"
"868","kml_868","Ren Medical Clinic","760101","103.827667722133","1.43053575388582","Yishun Avenue 5, 760101"
"869","kml_869","Reservoir Road Clinic & Surgery","470704","103.920203566195","1.33635490585941","Bedok Reservoir Road, 470704"
"870","kml_870","River of Life Family Clinic","680026","103.755740001423","1.3776211236711","TECK WHYE LANE, 680026"
"871","kml_871","Rivervale Family Clinic & Surgery","540118","103.901841043722","1.38533736141014","RIVERVALE DRIVE, 540118"
"872","kml_872","Royal Care Medical Yishun Grove","760675","103.843558885887","1.42015550948838","YISHUN AVENUE 4, 760675"
"873","kml_873","Royal Care Medical Yishun Junction 9","760317","103.842276902055","1.43377281319948","YISHUN AVENUE 9, 760317"
"874","kml_874","S & L FAMILY CLINIC","760729","103.831598307398","1.42585285580125","YISHUN ST 71, 760729"
"875","kml_875","S AND L FAMILY CLINIC","760235","103.838543994101","1.43422889275473","YISHUN ST 21, 760235"
"876","kml_876","S G CLINIC FAMILY PRACTICE","555980","103.86498913644","1.36435938121985","SERANGOON GARDEN WAY, 555980"
"877","kml_877","S K TAY CLINIC & SURGERY","520827","103.933719246548","1.34972149524439","TAMPINES ST 81, 520827"
"878","kml_878","S LEE CLINIC","530644","103.881261079223","1.37143736473082","HOUGANG AVE 8, 530644"
"879","kml_879","S S TAN MEDICAL CLINIC","760744","103.834049245981","1.42934172925754","YISHUN ST 72, 760744"
"880","kml_880","S T MEDICAL CENTRE","380095","103.886195689055","1.32170328990751","ALJUNIED CRESCENT, 380095"
"881","kml_881","S Y LEE CLINIC","329802","103.850395374008","1.32572472592378","BALESTIER ROAD, 329802"
"882","kml_882","S. T. MEDICAL CLINIC","460531","103.926153139378","1.33312991887095","BEDOK NORTH ST. 3, 460531"
"883","kml_883","SAINT-JULIEN CLINIC FOR DIABETES & ENDOCRINOLOGY","574623","103.837601167324","1.34182282585918","THOMSON ROAD, 574623"
"884","kml_884","SATA CommHealth Community Hub","792447","103.873207670164","1.39246632893681","JALAN KAYU, 792447"
"885","kml_885","SATA CommHealth Medical Centre","600135","103.739676885463","1.33382540751653","Jurong Gateway Road, 600135"
"886","kml_886","SATA CommHealth Medical Centre","468982","103.921391376569","1.32774293711146","CHAI CHEE STREET, 468982"
"887","kml_887","SATA CommHealth Medical Centre","730900","103.786930895563","1.43501829556388","SOUTH WOODLANDS DR, 730900"
"888","kml_888","SATA CommHealth Medical Centre","560715","103.845927987274","1.37099726405562","ANG MO KIO AVENUE 6, 560715"
"889","kml_889","SATA CommHealth Medical Centre","529482","103.942027827131","1.35344127649824","TAMPINES CENTRAL 6, 529482"
"890","kml_890","SATA CommHealth Medical Centre","347919","103.869979972572","1.32915444536368","SIANG KUANG AVENUE, 347919"
"891","kml_891","SATA CommHealth Medical Centre","649808","103.716518474795","1.34542200611767","CORPORATION ROAD, 649808"
"892","kml_892","SEASONS CLINIC","520844","103.936530873297","1.35210583556431","TAMPINES ST 82, 520844"
"893","kml_893","SENNETT MEDICAL CLINIC","455871","103.923185592863","1.31260423076805","SIGLAP ROAD, 455871"
"894","kml_894","SH TAN KIDNEY AND MEDICAL CLINIC","258499","103.820124456725","1.30706156424643","NAPIER ROAD, 258499"
"895","kml_895","SHALOM CLINIC & SURGERY","150123","103.804019034887","1.28685131584493","BT MERAH LANE 1, 150123"
"896","kml_896","SHALOM MEDICAL GROUP","180231","103.853619482439","1.29681525968455","BAIN STREET, 180231"
"897","kml_897","SHENTON CLINIC","640498","103.724307319672","1.34833335721941","JURONG WEST ST 41, 640498"
"898","kml_898","SHENTON FAMILY MEDICAL CLINIC","600131","103.740177518805","1.33451257366884","JURONG GATEWAY ROAD, 600131"
"899","kml_899","SHENTON FAMILY MEDICAL CLINIC","560728","103.845682929328","1.37262841649544","ANG MO KIO AVENUE 6, 560728"
"900","kml_900","SHENTON FAMILY MEDICAL CLINIC","080001","103.841261035114","1.27703474364687","CANTONMENT ROAD, 080001"
"901","kml_901","SHENTON FAMILY MEDICAL CLINIC (BEDOK RESERVOIR)","470744","103.921663304271","1.33786042599072","BEDOK RESERVOIR ROAD, 470744"
"902","kml_902","SHENTON FAMILY MEDICAL CLINIC (TAMPINES)","524201","103.953586491461","1.35226231434834","Tampines Street 21, 524201"
"903","kml_903","SHENTON MEDICAL GROUP","079903","103.84592379296","1.27588674304532","ANSON RD, 079903"
"904","kml_904","SHENTON MEDICAL GROUP","760160","103.833344538803","1.43241454599015","Yishun Street 11, 760160"
"905","kml_905","SHENTON MEDICAL GROUP","049317","103.85206894582","1.28361958417727","COLLYER QUAY, 049317"
"906","kml_906","SHENTON MEDICAL GROUP","098138","103.822038714188","1.2570386443268","Sentosa Gateway, 098138"
"907","kml_907","SHENTON MEDICAL GROUP","349253","103.875061735482","1.32529543334089","KALLANG WAY LEVEL 1, 349253"
"908","kml_908","SHENTON MEDICAL GROUP","018984","103.854548750789","1.27972491465308","MARINA BOULEVARD, 018984"
"909","kml_909","SHENTON MEDICAL GROUP","648886","103.706685012636","1.33945271688955","JURONG WEST CENTRAL 2, 648886"
"910","kml_910","SHERATON MEDICAL CLINIC","530681","103.885679159796","1.37297840263115","HOUGANG AVE 8, 530681"
"911","kml_911","SHIFA CLINIC & SURGERY","210668","103.851478219833","1.30758123998287","CHANDER RD, 210668"
"912","kml_912","SIA FAMILY CLINIC AND SURGERY","430010","103.895865169689","1.31483950172833","HAIG RD, 430010"
"913","kml_913","SIGLAP CLINIC PTE LTD","423858","103.911720115565","1.30948276291967","TELOK KURAU ROAD, 423858"
"914","kml_914","SILVER CROSS CLINIC (MARSILING)","730305","103.774102413755","1.43036145793777","WOODLANDS STREET 31, 730305"
"915","kml_915","SILVER CROSS MEDICAL","760846","103.834641578841","1.41678634673088","YISHUN RING ROAD, 760846"
"916","kml_916","SILVER CROSS MEDICAL","278993","103.795257905208","1.31177848862859","HOLLAND AVENUE, 278993"
"917","kml_917","SILVER CROSS MEDICAL","599728","103.775277106211","1.34235676021944","CHEONG CHIN NAM ROAD, 599728"
"918","kml_918","SIMEI CLINIC & SURGERY","520248","103.953541142784","1.34359376286677","SIMEI ST 3, 520248"
"919","kml_919","SIMEI MEDICAL CENTRE","520248","103.953541142784","1.34359376286677","SIMEI ST 3, 520248"
"920","kml_920","SIMON ROAD FAMILY CLINIC","545895","103.885935907258","1.3617743634574","SIMON ROAD, 545895"
"921","kml_921","SIMS DRIVE MEDICAL CLINIC","380053","103.880077585336","1.31782374725095","SIMS PLACE, 380053"
"922","kml_922","SINCERE MEDICAL & DENTAL CLINIC","760292","103.836966390664","1.43672478429336","YISHUN ST 22, 760292"
"923","kml_923","SINGAPORE AEROMEDICAL CENTRE","539945","103.900280919801","1.34363607889026","AIRPORT ROAD, 539945"
"924","kml_924","SINGAPORE TECHNOLOGIES ELECTRONICS LIMITED (IN-HOUSE MEDICAL CLINIC)","569061","103.849272321026","1.39160303137082","ANG MO KIO ST 65, 569061"
"925","kml_925","SINGAPORE TELECOM CLINIC","239732","103.838824144408","1.29883731525061","EXETER ROAD, 239732"
"926","kml_926","SINGAPURA CLINIC","189620","103.849843766758","1.29884587563078","BENCOOLEN ST, 189620"
"927","kml_927","SM HANEEFA CLINIC","460011","103.92488389348","1.32691137477773","CHAI CHEE ROAD, 460011"
"928","kml_928","SOONG CLINIC AND SURGERY","140162","103.802856952292","1.2922546717017","MEI LING ST, 140162"
"929","kml_929","SP CLINIC","670117","103.767979335898","1.37730128054995","PENDING RD, 670117"
"930","kml_930","ST ANDREW'S MISSION HOSPITAL CLINIC (ELLIOT ROAD)","458686","103.929750021328","1.31075791672664","ELLIOT ROAD, 458686"
"931","kml_931","ST ANDREW'S MISSION HOSPITAL CLINIC (SIMEI)","529895","103.948799458403","1.34168650589195","SIMEI STREET 3, 529895"
"932","kml_932","ST Engineering In-house Clinic (Changi)","499611","103.972325551213","1.35064916412837","CHANGI NORTH WAY, 499611"
"933","kml_933","ST Engineering In-house Clinic (Jalan Boon Lay)","619523","103.712432335887","1.33948085341025","JALAN BOON LAY, 619523"
"934","kml_934","ST Engineering In-house Clinic (Paya Lebar)","539938","103.896796279931","1.35004734926347","AIRPORT RD, PAYA LEBAR, 539938"
"935","kml_935","ST Engineering In-house Clinic (Seletar)","797654","103.862850399796","1.41690177900939","WEST CAMP ROAD, 797654"
"936","kml_936","STARCARE CLINIC AND SURGERY  PTE. LTD.","650207","103.749382188619","1.3462486617594","BUKIT BATOK ST 21, 650207"
"937","kml_937","STAT MEDICAL CLINIC","797601","103.896018765382","1.41690780081278","SELETAR NORTH LINK, 797601"
"938","kml_938","STAT MEDICAL CLINIC @ HOUGANG","530311","103.894853675365","1.36566733051337","HOUGANG AVENUE 5, 530311"
"939","kml_939","STERLING CLINIC & SURGERY","531003","103.876132956821","1.35047535988667","LOR LEW LIAN, 531003"
"940","kml_940","STERLING FAMILY CLINIC","460084","103.939208398887","1.33178245042997","BEDOK NORTH ST 4, 460084"
"941","kml_941","STEWARD CLINIC","508923","103.970463664726","1.37149482514443","LOYANG LANE, 508923"
"942","kml_942","STREET 11 CLINIC","521139","103.944509227628","1.3461607395066","TAMPINES ST 11, 521139"
"943","kml_943","STREET 21 CLINIC TAMPINES PTE. LTD.","522201","103.953009919289","1.35345315773106","TAMPINES ST 21, 522201"
"944","kml_944","SUMMIT MEDICAL CLINIC","560632","103.841432372506","1.37992681961038","ANG MO KIO AVE 4, 560632"
"945","kml_945","Platinum Medical Centre @Dorm","608596","103.751872040865","1.33649931574899","TOH GUAN ROAD EAST, 608596"
"946","kml_946","Platinum Medical Centre pte ltd","760504","103.844582117379","1.41840135619382","YISHUN STREET 51, 760504"
"947","kml_947","Potong Pasir Medical Clinic","350148","103.867774260572","1.3323543600733","POTONG PASIR AVENUE 1, 350148"
"948","kml_948","Pristine Medical Clinic","640463","103.723241115985","1.35057698682517","JURONG WEST STREET 41, 640463"
"949","kml_949","Prive Clinic","238871","103.82958804502","1.30665484568371","ORCHARD ROAD, 238871"
"950","kml_950","ProHealth Medical Group @Fernvale","797653","103.876125506847","1.39147015412078","SENGKANG WEST AVENUE, 797653"
"951","kml_951","ProHealth Medical Group @Hougang","537476","103.903623796172","1.37791506095757","UPPER SERANGOON VIEW, 537476"
"952","kml_952","ProHealth Medical Group @Punggol Damai","820612","103.908665597742","1.40461003130726","PUNGGOL DRIVE, 820612"
"953","kml_953","ProHealth Medical Group @Taman Jurong Pte Ltd","610399","103.720462024234","1.33484487386451","YUNG SHENG ROAD, 610399"
"954","kml_954","Procross Medical Center","347697","103.868214025397","1.33149708060439","UPPER SERANGOON ROAD, 347697"
"955","kml_955","Procross Medical Clinic","731689","103.807925410056","1.44438629268513","WOODLANDS DRIVE 75, 731689"
"956","kml_956","Prohealth Medical Group @Punggol Spectra Pte. Ltd.","824622","103.910536918863","1.40053114978911","PUNGGOL CENTRAL, 824622"
"957","kml_957","Providence Clinic @ Hillford","596152","103.769543941461","1.34404337277176","JALAN JURONG KECHIL, 596152"
"958","kml_958","Providence Clinic @ Redhill","150086","103.818673591845","1.2869200625471","REDHILL CLOSE, 150086"
"959","kml_959","Providence Medical Centre Pte. Ltd.","048424","103.849023724329","1.28240746012436","CROSS STREET, 048424"
"960","kml_960","Providence Orthopaedics","329563","103.844212383776","1.32214005414322","IRRAWADDY ROAD, 329563"
"961","kml_961","Prudence Family Clinic","570512","103.849881703096","1.34962234945727","BISHAN STREET 13, 570512"
"962","kml_962","Punggol Ripples Family Clinic","824211","103.899198537951","1.40093563181012","PUNGGOL WALK, 824211"
"963","kml_963","Q & M MEDICAL & AESTHETIC CLINIC (FARRER PARK)","208539","103.856624020172","1.31142103101451","KITCHENER ROAD, 208539"
"964","kml_964","Q & M MEDICAL & AESTHETIC CLINIC (TAMPINES CENTRAL) PTE. LTD.","529536","103.945071748026","1.35425637955977","TAMPINES CENTRAL 1, 529536"
"965","kml_965","Q & M MEDICAL CLINIC (BUANGKOK MRT) PTE. LTD.","545061","103.893122570095","1.3828700200017","SENGKANG CENTRAL, 545061"
"966","kml_966","Q & M MUTUAL HEALTHCARE MEDICAL CLINIC","828868","103.902072622227","1.40454653696814","PUNGGOL CENTRAL, 828868"
"967","kml_967","Q & M Medical Clinic (Bukit Batok)","650151","103.744211484368","1.34874703498808","BT BATOK ST 11, 650151"
"968","kml_968","Q & M Medical Family Clinic","550261","103.872524450893","1.35405255235679","SERANGOON CENTRAL DRIVE, 550261"
"969","kml_969","iDOC Clinic","538719","103.88783201701","1.37924529078289","HOUGANG STREET 51, 538719"
"970","kml_970","iPCARE Clinic","547530","103.87803114664","1.37203701009684","LORONG NAPIRI, 547530"
"971","kml_971","my clinic","598332","103.779313810092","1.33684217571663","KING ALBERT PARK, 598332"
"972","kml_972","saudara clinic by A+J general physicians","419741","103.904690339985","1.31724236488417","CHANGI ROAD, 419741"
"973","kml_973","St. Luke's Community Clinic","659674","103.742182351689","1.3496004115257","BUKIT BATOK STREET 11, 659674"
"974","kml_974","Standard Clinic & Surgery","820261","103.896823893769","1.40541353684327","PUNGGOL WAY, 820261"
"975","kml_975","Sunshine Clinic Family Practice & Surgery","520445","103.950658404772","1.35830242158699","TAMPINES STREET 42, 520445"
"976","kml_976","Sunway Medical Centre","329565","103.843252763122","1.32047597480701","IRRAWADDY ROAD, 329565"
"977","kml_977","Swiss Clinic","268802","103.795692352825","1.33081740087421","FIFTH AVENUE, 268802"
"978","kml_978","T MEDICAL CLINIC (CITY GATE)","199597","103.862331661469","1.30231590472988","BEACH ROAD, 199597"
"979","kml_979","T MEDICAL CLINIC (KALLANG)","380005","103.872491873232","1.31264014487988","UPPER BOON KENG ROAD, 380005"
"980","kml_980","T Medical Clinic","750115","103.828739863128","1.44608188224878","CANBERRA WALK, 750115"
"981","kml_981","T S WONG CLINIC & SURGERY","730166","103.775491556251","1.43331773798557","WOODLANDS ST 13, 730166"
"982","kml_982","TAI SENG CLINIC","369551","103.887216149787","1.33637945088224","IRVING PLACE, 369551"
"983","kml_983","TAMPINES CLINIC AND SURGERY PTE LTD","521139","103.944509227628","1.3461607395066","TAMPINES ST 11, 521139"
"984","kml_984","TAMPINES MEDILIFE CLINIC","520801","103.938014036838","1.34719233083684","TAMPINES AVE 4, 520801"
"985","kml_985","TAN & KOH CLINIC & SURGERY","470121","103.909992224751","1.3313051776693","Bedok Reservoir Rd, 470121"
"986","kml_986","TAN LEE CLINIC & SURGERY","510446","103.957726864829","1.37030619330386","PASIR RIS DR 6, 510446"
"987","kml_987","TAN MEDICAL CLINIC PTE LTD","560339","103.849115818814","1.36506492203815","ANG MO KIO AVE 1, 560339"
"988","kml_988","TAN MEDICARE CLINIC PTE LTD","560629","103.840408652686","1.38010475022238","ANG MO KIO AVE 4, 560629"
"989","kml_989","TAN'S T & T CLINIC AND SURGERY","570152","103.854641447659","1.34565720338064","BISHAN STREET 11, 570152"
"990","kml_990","TAN-TEOH CLINIC & SURGERY","322101","103.861087462865","1.31942539044681","TOWNER RD, 322101"
"991","kml_991","TAN-TEOH CLINIC & SURGERY","322101","103.861087462865","1.31942539044681","TOWNER ROAD, 322101"
"992","kml_992","TAN-TEOH CLINIC & SURGERY (ANG MO KIO BRANCH)","560302","103.845660198618","1.36708983210487","ANG MO KIO AVE 3, 560302"
"993","kml_993","TANJONG PAGAR MEDICAL CLINIC","082001","103.842433596845","1.27568702794453","TANJONG PAGAR PLAZA, 082001"
"994","kml_994","TAY CLINIC","389452","103.885031221639","1.31332659768711","GEYLANG RD, 389452"
"995","kml_995","TAY MEDICAL CENTRE","271006","103.795264616726","1.30711568648359","HOLLAND CLOSE, 271006"
"996","kml_996","TC FAMILY CLINIC PTE LTD","640526","103.717048366415","1.34767189579547","JURONG WEST ST 52, 640526"
"997","kml_997","Vitacare Family Clinic@Seletar Pte.Ltd.","790417","103.879874611056","1.39158623013568","FERNVALE LINK, 790417"
"998","kml_998","Vital-Care Clinic and Surgery Pte Ltd","560525","103.853976743936","1.37262666866782","ANG MO KIO AVENUE 10, 560525"
"999","kml_999","Viva Medical Clinic","521450","103.952252183693","1.35836068994646","Tampines Street 42, 521450"
"1000","kml_1000","Viva Medical Group","521519","103.94038160042","1.35727594434997","TAMPINES CENTRAL 8, 521519"
"1001","kml_1001","TEBAN GARDEN CLINIC","600061","103.738292803759","1.32213636288697","TEBAN GARDENS RD, 600061"
"1002","kml_1002","TEH'S CLINIC & SURGERY","370064","103.887148432888","1.32698404465594","CIRCUIT ROAD, 370064"
"1003","kml_1003","TEIN CLINIC & SURGERY","530124","103.886655349854","1.3528926150549","HOUGANG AVE 1, 530124"
"1004","kml_1004","TEK DISPENSARY","310004","103.855541063592","1.33904479825361","TOA PAYOH LOR 7, 310004"
"1005","kml_1005","TEMASEK CLINIC & SURGERY","460073","103.943971359098","1.3198380312489","BEDOK SOUTH AVENUE 3, 460073"
"1006","kml_1006","TEMASEK MEDICAL CENTRE","730883","103.790548015767","1.44275333234585","WOODLANDS ST 82, 730883"
"1007","kml_1007","TEMASEK MEDICAL CENTRE","680624","103.747084778715","1.3980473611046","CHOA CHU KANG ST 62, 680624"
"1008","kml_1008","TEMASEK MEDICAL CENTRE","750406","103.816977584507","1.45292980559221","SEMBAWANG DRIVE, 750406"
"1009","kml_1009","TEMASEK MEDICAL CENTRE","650413","103.746596967414","1.36356572652377","BUKIT BATOK WEST AVE 4, 650413"
"1010","kml_1010","TEMASEK MEDICAL CLINIC","310212","103.854334496723","1.34064293669732","TOA PAYOH LOR 8, 310212"
"1011","kml_1011","TEMASEK MEDICAL CLINIC","460086","103.938989345549","1.33254084334528","BEDOK NORTH ST 4, 460086"
"1012","kml_1012","TENG CLINIC","140171","103.803846935065","1.29073246215042","STIRLING ROAD, 140171"
"1013","kml_1013","TEO CLINIC & SURGERY PTE LTD","120352","103.771350557955","1.31427860262492","CLEMENTI AVE 2, 120352"
"1014","kml_1014","TEOH CLINIC FAMILY PRACTICE","310047","103.854030352437","1.3369102979863","LORONG 6 TOA PAYOH, 310047"
"1015","kml_1015","TEXTILE CENTRE CLINIC","199018","103.861630792348","1.30393835652833","JLN SULTAN, 199018"
"1016","kml_1016","TH Chia Medical Practice","550151","103.873778334173","1.36934534973621","SERANGOON NORTH AVENUE 2, 550151"
"1017","kml_1017","THAI SHEN FAMILY CLINIC PTE LTD","460084","103.939208398887","1.33178245042997","BEDOK NORTH ST 4, 460084"
"1018","kml_1018","THE BALMORAL CLINIC","397693","103.876473975459","1.30230108382985","STADIUM WALK, 397693"
"1019","kml_1019","THE BALMORAL CLINIC  FAMILY MEDICINE","259708","103.835487584763","1.31643962977729","BUKIT TIMAH RD, 259708"
"1020","kml_1020","THE BISHAN FAMILY DOCTORS","570283","103.844748631654","1.35891907140489","BISHAN ST 22, 570283"
"1021","kml_1021","THE CHELSEA CLINIC (ROCHESTER)","138639","103.788371152095","1.30541103558597","ROCHESTER DRIVE, 138639"
"1022","kml_1022","THE CHUNGKIAW FAMILY PRACTICE PTE LTD","569766","103.840356912641","1.38403248453043","ANG MO KIO AVE 9, 569766"
"1023","kml_1023","THE CIVIC CLINIC","460537","103.924236461317","1.33177300798251","BEDOK NORTH ST 3, 460537"
"1024","kml_1024","THE CLINIC @ ONE GEORGE STREET","049145","103.847819970393","1.2856940848176","GEORGE STREET, 049145"
"1025","kml_1025","THE CLINIQ","751590","103.826654919933","1.45035573243813","MONTREAL LINK, 751590"
"1026","kml_1026","THE CORONATION CLINIC","269707","103.809999570462","1.32383512138206","BUKIT TIMAH ROAD, 269707"
"1027","kml_1027","THE DOCTOR'S CLINIC","640429","103.724496794909","1.3519251312171","JURONG WEST AVE 1, 640429"
"1028","kml_1028","THE EDINBURGH CLINIC","680306","103.742877957315","1.3849567248116","CHOA CHU KANG AVE 4, 680306"
"1029","kml_1029","THE FAHRENHEIT MEDICAL CENTRE","460218","103.934249434387","1.32749295502142","BEDOK NORTH STREET 1, 460218"
"1030","kml_1030","THE FAMILY MEDICAL CENTRE (YISHUN) PTE. LTD.","760411","103.847404278661","1.42574178896438","YISHUN RING ROAD, 760411"
"1031","kml_1031","THE FAMILY PRACTICE CLINIC & SURGERY","140117","103.800270024775","1.30659244995571","COMMONWEALTH DR, 140117"
"1032","kml_1032","THE FAMILY PRACTICE-POTONG PASIR","350148","103.867774260572","1.3323543600733","POTONG PASIR AVE 1, 350148"
"1033","kml_1033","THE FLAME TREE MEDICAL CENTRE","574357","103.834434648473","1.35276828454393","UPPER THOMSON ROAD, 574357"
"1034","kml_1034","THE HEALER CLINIC + SURGERY","550154","103.873115537646","1.37012983432538","SERANGOON NORTH AVENUE 1, 550154"
"1035","kml_1035","THE MEDICAL AND AESTHETIC CLINIC PTE LTD","387514","103.883265346401","1.31503870948871","SIMS AVENUE, 387514"
"1036","kml_1036","THE OLIVE TREE FAMILY CLINIC & SURGERY PTE. LTD.","540303","103.890606111941","1.3873819457872","ANCHORVALE LINK, 540303"
"1037","kml_1037","THE PEOPLE'S CLINIC","680145","103.75246691105","1.38150500405147","TECK WHYE AVE, 680145"
"1038","kml_1038","THOMAS CLINIC & SURGERY","100061","103.812007084733","1.2757050081363","TELOK BLANGAH HEIGHTS, 100061"
"1039","kml_1039","TIONG BAHRU MEDICAL CENTRE","169248","103.829293518372","1.28503456963472","KIM TIAN ROAD, 169248"
"1040","kml_1040","TOH GUAN FAMILY CLINIC","601267","103.744937236151","1.34155988951414","TOH GUAN ROAD, 601267"
"1041","kml_1041","TOWN CLINIC","199551","103.860481764343","1.30097707775176","BEACH ROAD, 199551"
"1042","kml_1042","TOWN HALL CLINIC PTE LTD","119976","103.800215758169","1.27749904111234","ALEXANDRA ROAD, 119976"
"1043","kml_1043","TP SIM FAMILY CLINIC & SURGERY","570509","103.849571983466","1.34862997259882","BISHAN STREET 11, 570509"
"1044","kml_1044","TPC Medical Clinic","078884","103.845155395288","1.27672492662156","WALLICH STREET, 078884"
"1045","kml_1045","TRINITY MEDICAL (PUNGGOL)","823273","103.901262391636","1.4023030133944","PUNGGOL PLACE, 823273"
"1046","kml_1046","TRUE MEDICAL CLINIC PAYA LEBAR QUARTER","409057","103.892836694638","1.31756115896992","PAYA LEBAR ROAD, 409057"
"1047","kml_1047","TRUE MEDICAL CLINIC TAMPINES WEST","520824","103.932714940567","1.34903743492173","TAMPINES STREET 81, 520824"
"1048","kml_1048","TSI & PARTNERS FAMILY CLINIC","550151","103.873778334173","1.36934534973621","Serangoon North Avenue 2, 550151"
"1049","kml_1049","TWIN CITY MEDICAL CENTRE","237994","103.832022135805","1.29342273673818","KIM SENG PROMENADE, 237994"
"1050","kml_1050","TWIN CITY MEDICAL PRACTICE","238874","103.834676124776","1.30242417185937","ORCHARD ROAD, 238874"
"1051","kml_1051","Tampines Family Medicine Clinic","528523","103.940408135516","1.35313359794721","Tampines Walk, 528523"
"1052","kml_1052","Tampines Medical Centre","520267","103.949259231371","1.3507727878183","Tampines Street 21, 520267"
"1053","kml_1053","Tampines West Medical Clinic","520801","103.938014036838","1.34719233083684","TAMPINES AVENUE 4, 520801"
"1054","kml_1054","Tan & Yik Clinic & Surgery","570116","103.849316086331","1.34780072006666","Bishan Street 12, 570116"
"1055","kml_1055","Tay Clinic","470117","103.908688936297","1.33141324887407","BEDOK RESERVOIR ROAD, 470117"
"1056","kml_1056","Tayka Medical","209562","103.854887502669","1.30946144037683","DESKER ROAD, 209562"
"1057","kml_1057","Tayka Medical Family Clinic","640526","103.717048366415","1.34767189579547","JURONG WEST STREET 52, 640526"
"1058","kml_1058","Teck Ghee Clinic (Dr Tan Yang Khai) Pte Ltd","560451","103.855527833275","1.36879314161118","ANG MO KIO AVENUE 10, 560451"
"1059","kml_1059","The Chong Family Clinic Pte Ltd","120442","103.764518593859","1.31412254189651","CLEMENTI AVENUE 3, 120442"
"1060","kml_1060","The Clinic @ Aperia","339511","103.864326436374","1.30971120681481","KALLANG AVENUE, 339511"
"1061","kml_1061","The Clinic @ Business City","117439","103.799064823374","1.27482749248458","PASIR PANJANG ROAD, 117439"
"1062","kml_1062","The Clinic @ Campus","178901","103.850105818253","1.29665679202142","STAMFORD ROAD, 178901"
"1063","kml_1063","The Clinic @ Capitagreen","048946","103.850083822226","1.28185803631837","MARKET STREET, 048946"
"1064","kml_1064","The Clinic @ Tai Seng","539775","103.888825620541","1.33631557485623","TAI SENG STREET, 539775"
"1065","kml_1065","The Clinic Group @ Marina One","018935","103.852844801568","1.27737235048624","STRAITS VIEW, 018935"
"1066","kml_1066","The Clinic@Fusionopolis","138522","103.788101008635","1.29986251393975","FUSIONOPOLIS PLACE, 138522"
"1067","kml_1067","The Dublin Clinic","120109","103.770776117109","1.32198067676568","CLEMENTI STREET 11, 120109"
"1068","kml_1068","The Family Clinic @ Towner","322101","103.861087462865","1.31942539044681","Towner Road, 322101"
"1069","kml_1069","The Family Physician Clinic","552542","103.871416978846","1.37368392969698","SERANGOON NORTH AVENUE 3, 552542"
"1070","kml_1070","The Family Practice@ Skyville","141085","103.809758591462","1.29531966312279","DAWSON ROAD, 141085"
"1071","kml_1071","The Good Life Medical Center","574623","103.837601167324","1.34182282585918","THOMSON ROAD, 574623"
"1072","kml_1072","The Heart Doctors Clinic","574623","103.837601167324","1.34182282585918","THOMSON ROAD, 574623"
"1073","kml_1073","The Pinnacle Medical Centre @ Maritime","089760","103.840350063969","1.27661793625795","CANTONMENT ROAD, 089760"
"1074","kml_1074","The Singapore Clinic for Kidney Diseases (Pte Ltd)","228510","103.83543933754","1.30516521414744","MOUNT ELIZABETH, 228510"
"1075","kml_1075","The Tenteram Clinic","322116","103.860807411655","1.32754908036765","JALAN TENTERAM, 322116"
"1076","kml_1076","The iClinic","164018","103.826785447839","1.28569742860668","JALAN MEMBINA, 164018"
"1077","kml_1077","Tng Family Clinic","560347","103.848576334379","1.36733858326108","Ang Mo Kio Ave 3, 560347"
"1078","kml_1078","Tong Clinic & Surgery","563316","103.847677034523","1.36462540282437","ANG MO KIO STREET 31, 563316"
"1079","kml_1079","Trinity Medical & Aesthetic Clinic","520151","103.957268859362","1.34575482690831","Simei Street 1, 520151"
"1080","kml_1080","Trinity Medical (Shenton)","068809","103.848408631153","1.27698070731049","SHENTON WAY, 068809"
"1081","kml_1081","Trinity Medical Centre (Marine Parade)","440087","103.905639343356","1.30245317778498","MARINE PARADE CENTRAL, 440087"
"1082","kml_1082","Trinity Medical Clinic","131019","103.784548440285","1.30735380274195","DOVER CRESCENT, 131019"
"1083","kml_1083","Trinity Medical Clinic","600130","103.739321261292","1.33472490438698","Jurong Gateway Road, 600130"
"1084","kml_1084","Trucare Medical And Surgery","533971","103.895291518123","1.37050445532031","UPPER SERANGOON ROAD, 533971"
"1085","kml_1085","Trucare Medical And Surgery","561226","103.839283930976","1.3674945803507","ANG MO KIO AVENUE 1, 561226"
"1086","kml_1086","TrueCare Clinic","218374","103.854233088533","1.31438189327845","RANGOON ROAD, 218374"
"1087","kml_1087","Tzu Chi Free Clinic (Singapore)","150090","103.818758492368","1.28499476970056","Redhill Close, 150090"
"1088","kml_1088","UBI FAMILY CLINIC & SURGERY","400305","103.902317496825","1.32942111198195","UBI AVENUE 1, 400305"
"1089","kml_1089","UNICARE FAMILY CLINIC & SURGERY","640216","103.711680539551","1.34967447000568","BOON LAY AVENUE, 640216"
"1090","kml_1090","UNICARE FAMILY CLINIC & SURGERY","640175","103.709485323871","1.34668916700238","BOON LAY DRIVE, 640175"
"1091","kml_1091","UNIHEALTH 24-HR CLINIC (TOA PAYOH)","310178","103.849264521174","1.33358025833851","TOA PAYOH CENTRAL, 310178"
"1092","kml_1092","UNION MEDICAL CLINIC & SURGERY","550152","103.872613997797","1.36934726838417","SERANGOON NORTH AVE 1, 550152"
"1093","kml_1093","UNITED HEALTH FAMILY CLINIC & SURGERY","760627","103.837005089082","1.41770409901142","YISHUN STREET 61, 760627"
"1094","kml_1094","UNITED MEDICAL CLINIC","200025","103.858221510781","1.30621516431413","JLN BERSEH, 200025"
"1095","kml_1095","UNITED MEDICAL PRACTITIONERS","522201","103.953009919289","1.35345315773106","TAMPINES ST 21, 522201"
"1096","kml_1096","UNIVERSAL MEDICAL CLINIC","760103","103.828892847597","1.43136934942161","YISHUN RING ROAD, 760103"
"1097","kml_1097","UNIVERSAL MEDICAL CLINIC","527201","103.953858335358","1.35292162528847","TAMPINES ST 23, 527201"
"1098","kml_1098","UNIVERSAL MEDICAL CLINIC","760235","103.838543994101","1.43422889275473","YISHUN ST 21, 760235"
"1099","kml_1099","UNIVERSAL MEDICAL CLINIC","650164","103.742831711196","1.34771697452787","BUKIT BATOK ST 11, 650164"
"1100","kml_1100","USRAH MEDICAL CLINIC","460510","103.931051496618","1.33212313297783","BEDOK NORTH ST 3, 460510"
"1101","kml_1101","Unihealth Clinic (Bedok)","460214","103.932493034946","1.32587565153874","BEDOK NORTH STREET 1, 460214"
"1102","kml_1102","United Medical Practitioners","521139","103.944509227628","1.3461607395066","TAMPINES STREET 11, 521139"
"1103","kml_1103","Urban Medical Centre","068900","103.848970997812","1.27954844736202","ROBINSON ROAD, 068900"
"1104","kml_1104","VERNON CLINIC & SURGERY","199001","103.861851786725","1.30294528655395","JALAN SULTAN, 199001"
"1105","kml_1105","VICTORY CLINIC AND SURGERY","270021","103.788545950367","1.31010302628844","GHIM MOH ROAD, 270021"
"1106","kml_1106","VISTA MEDICAL CENTRE","118136","103.785909603082","1.27980322341195","SOUTH BUONA VISTA ROAD, 118136"
"1107","kml_1107","VITACARE FAMILY CLINIC @ CANBERRA PTE. LTD.","750361","103.813936814037","1.44631506786133","SEMBAWANG CRESCENT, 750361"
"1108","kml_1108","Victor's Family Clinic","310168","103.843423249834","1.33176643075075","LORONG 1 TOA PAYOH, 310168"
"1109","kml_1109","Victoria Medical House","730888","103.79531438351","1.43712301469225","WOODLANDS DRIVE 50, 730888"
"1110","kml_1110","Vitacare Family Clinic (Punggol Central)","824622","103.910536918863","1.40053114978911","PUNGGOL CENTRAL, 824622"
"1111","kml_1111","Vitacare Family Clinic@Punggol West Pte Ltd","820218","103.895387022161","1.40322712503317","SUMANG WALK, 820218"
"1112","kml_1112","RafflesMedical","510259","103.964598499537","1.36645364049074","PASIR RIS STREET 21, 510259"
"1113","kml_1113","RafflesMedical","600131","103.740177518805","1.33451257366884","Jurong Gateway Road, 600131"
"1114","kml_1114","RafflesMedical","819643","103.989066655162","1.35496948998212","AIRPORT BOULEVARD, 819643"
"1115","kml_1115","Viva Medical Group (Westside)","127371","103.766131294904","1.30369748988215","WEST COAST ROAD, 127371"
"1116","kml_1116","W Medical","750365","103.816263881646","1.44436832542469","SEMBAWANG CRESCENT, 750365"
"1117","kml_1117","W P SIM FAMILY CLINIC & SURGERY","550153","103.872312298307","1.36995099695439","SERANGOON NORTH AVE 1, 550153"
"1118","kml_1118","W Y TEH FAMILY CLINIC AND SURGERY","520462","103.955111125692","1.35901318154697","TAMPINES STREET 44, 520462"
"1119","kml_1119","W. H. YAK FAMILY CLINIC","462025","103.933835585522","1.32325013385157","NEW UPPER CHANGI RD, 462025"
"1120","kml_1120","WAN Medical Clinic","460416","103.930684870619","1.32840382792706","BEDOK NORTH AVENUE 2, 460416"
"1121","kml_1121","WEE'S FAMILY CLINIC & SURGERY","320088","103.855171553982","1.32324727008732","WHAMPOA DR, 320088"
"1122","kml_1122","WELL FAMILY CLINIC & SURGERY","560555","103.857024005426","1.37119666410327","ANG MO KIO AVENUE 10, 560555"
"1123","kml_1123","WEN & WENG FAMILY CLINIC","750505","103.822534715116","1.45026201893127","CANBERRA LINK, 750505"
"1124","kml_1124","WEST COAST CLINIC & SURGERY (CLEMENTI WEST) PTE LTD","120722","103.76375957814","1.30291359278879","CLEMENTI WEST ST 2, 120722"
"1125","kml_1125","WHAMPOA CLINIC","320088","103.855171553982","1.32324727008732","WHAMPOA DR, 320088"
"1126","kml_1126","WHITECOAT MEDICAL","159545","103.820411646878","1.2823935104936","HENDERSON ROAD, 159545"
"1127","kml_1127","WINSTEDT CLINIC","207408","103.853340215432","1.30621809763649","UPPER WELD ROAD, 207408"
"1128","kml_1128","WL&H Medical","228208","103.831970581405","1.30611334615777","SCOTTS ROAD, 228208"
"1129","kml_1129","WONG CLINIC & SURGERY","550153","103.872312298307","1.36995099695439","SERANGOON NORTH AVE 1, 550153"
"1130","kml_1130","WONG CLINIC AND SURGERY","560416","103.855103690664","1.36454170930926","ANG MO KIO AVE 10, 560416"
"1131","kml_1131","WONG FAMILY CLINIC & SURGERY PTE LTD","470117","103.908688936297","1.33141324887407","BEDOK RESERVOIR RD, 470117"
"1132","kml_1132","WOODLANDS CLINIC","730131","103.778613439736","1.43847983984994","MARSILING RISE, 730131"
"1133","kml_1133","WOODLANDS FAMILY CLINIC","730305","103.774102413755","1.43036145793777","WOODLANDS ST 31, 730305"
"1134","kml_1134","WOODLANDS MEDICAL CENTRE","730210","103.773680352853","1.44620708777433","MARSILING CRESCENT, 730210"
"1135","kml_1135","WU CLINIC & SURGERY","600249","103.739259690046","1.34256242271947","JURONG EAST ST 24, 600249"
"1136","kml_1136","Waheeda's Clinic & Surgery","219155","103.851567478911","1.30696523402683","KERBAU ROAD, 219155"
"1137","kml_1137","Wee HealthFirst Medical Clinic","120378","103.7674169862","1.31741204143962","CLEMENTI AVENUE 5, 120378"
"1138","kml_1138","Wee's Clinic & Surgery Pte. Ltd.","460418","103.930036524412","1.32856421162809","BEDOK NORTH AVENUE 2, 460418"
"1139","kml_1139","Well Medical Clinic & Surgery","510739","103.936796194489","1.37850572553651","Pasir Ris Drive 10, 510739"
"1140","kml_1140","WellCare Family Clinic","760747","103.833488111412","1.42822554362834","YISHUN STREET 72, 760747"
"1141","kml_1141","Winsome Medical & Dental Center","320081","103.856326403138","1.32400427512258","Whampoa Dr, 320081"
"1142","kml_1142","Wong Clinic","460539","103.925307290309","1.33131386611754","Bedok North Street 3, 460539"
"1143","kml_1143","Woodgrove Medical","739065","103.781136877578","1.42919468078964","WOODLANDS AVENUE 1, 739065"
"1144","kml_1144","Y M CHAN CLINIC & SURGERY","520406","103.945792875721","1.35782898267512","TAMPINES ST 41, 520406"
"1145","kml_1145","Y T LIM CLINIC","522201","103.953009919289","1.35345315773106","TAMPINES ST 21, 522201"
"1146","kml_1146","YANG & CHIN MEDICAL & DENTAL ASSOCIATES YANG ING SHYONG MEDICAL & AESTHETIC CLINIC","521139","103.944509227628","1.3461607395066","TAMPINES ST 11, 521139"
"1147","kml_1147","YANG & YAP CLINIC AND SURGERY (PTE LTD) / DR YANG ING HONG MEDICAL AND AESTHETIC CLINIC","460537","103.924236461317","1.33177300798251","BEDOK NORTH ST 3, 460537"
"1148","kml_1148","YAP FAMILY CLINIC","730132","103.77802575812","1.43828189844375","MARSILING RISE, 730132"
"1149","kml_1149","YAP MEDICARE CLINIC & SURGERY","260008","103.805373812286","1.31641190070436","EMPRESS RD, 260008"
"1150","kml_1150","YAP WEE SEE RESPIRATORY AND SLEEP CLINIC","329563","103.844212383776","1.32214005414322","IRRAWADDY ROAD, 329563"
"1151","kml_1151","YEO CLINIC","650134","103.74450960652","1.3515908698424","BT BATOK WEST AVE 6, 650134"
"1152","kml_1152","YEO'S Clinic","120354","103.770861088487","1.31351386363529","Clementi Avenue 2, 120354"
"1153","kml_1153","YIM CLINIC","161011","103.828789865619","1.2863657812581","BOON TIONG ROAD, 161011"
"1154","kml_1154","YIM MEDICAL CENTRE (ADMIRALTY MRT)","730678","103.801293104547","1.43998366603242","WOODLANDS AVE 6, 730678"
"1155","kml_1155","YISHUN RING ROAD CLINIC","760236","103.83899894357","1.43416807953309","YISHUN RING ROAD, 760236"
"1156","kml_1156","YISHUNONE FAMILY CLINIC","760743","103.833671016582","1.4298998339656","YISHUN AVENUE 5, 760743"
"1157","kml_1157","YONG CLINIC & SURGERY","760632","103.839186936926","1.41856736772689","YISHUN ST 61, 760632"
"1158","kml_1158","YOONG FAMILY CLINIC & SURGERY","520333","103.961129743645","1.35335719500359","TAMPINES ST 32, 520333"
"1159","kml_1159","YSL ALJUNIED CLINIC & SURGERY","360005","103.879898474189","1.33372866023576","UPPER ALJUNIED LANE, 360005"
"1160","kml_1160","YSL BEDOK CLINIC & SURGERY","460539","103.925307290309","1.33131386611754","BEDOK NORTH STREET 3, 460539"
"1161","kml_1161","Yarra Medical Clinic","128020","103.757451263607","1.31641321897956","WEST COAST DRIVE, 128020"
"1162","kml_1162","Yio Chu Kang MRT Clinic Pte Ltd","560635","103.842378423283","1.38076896102348","Ang Mo Kio Ave 6, 560635"
"1163","kml_1163","ZENITH MEDICAL CLINIC","823266","103.897805221313","1.40515419804686","PUNGGOL WAY, 823266"
"1164","kml_1164","Zam Family Clinic","680516","103.743525075344","1.39095082434027","CHOA CHU KANG STREET 51, 680516"
"1165","kml_1165","banyan clinic @ jw","640502","103.718334683532","1.3505012764805","JURONG WEST AVENUE 1, 640502"
"1166","kml_1166","i.Medical & i.Aesthetics","768019","103.836177650724","1.42790289016825","NORTHPOINT DRIVE, 768019"
"1167","kml_1167","iCare Medical and Wellness Clinic","160022","103.828824191963","1.28874603715013","HAVELOCK ROAD, 160022"
